<?xml version="1.0" encoding="UTF-8"?>
<gpx version="1.1" creator="HBGM 26 mattor"
 xmlns="http://www.topografix.com/GPX/1/1">
  <metadata>
    <name>HBGM 26 Söder — Hans &amp; Erik (igång-ordning)</name>
    <desc>Körrutt i igång-ordning: tidigast igång först.</desc>
  </metadata>
  <wpt lat="56.008511" lon="12.723066">
    <name>1/5 5 km hel</name>
    <cmt>SÄTT UPP: Tidtagningsmatta 5 km marathon | Igång 06:15</cmt>
    <desc>SÄTT UPP: Tidtagningsmatta 5 km marathon | Igång 06:15</desc>
    <sym>Flag</sym>
    <type>Tidtagningspunkt</type>
  </wpt>
  <wpt lat="56.007523" lon="12.753341">
    <name>2/5 10 km hel</name>
    <cmt>SÄTT UPP: Tidtagningsmatta 10 km marathon | Igång 06:45</cmt>
    <desc>SÄTT UPP: Tidtagningsmatta 10 km marathon | Igång 06:45</desc>
    <sym>Flag</sym>
    <type>Tidtagningspunkt</type>
  </wpt>
  <wpt lat="56.011402" lon="12.753956">
    <name>3/5 Vxl 1 hel</name>
    <cmt>SÄTT UPP: Växlingsmatta stafett 42 km, växling 1 | Igång 07:15 | Där asfaltsvägen blir grusväg</cmt>
    <desc>SÄTT UPP: Växlingsmatta stafett 42 km, växling 1 | Igång 07:15 | Där asfaltsvägen blir grusväg</desc>
    <sym>Flag</sym>
    <type>Tidtagningspunkt</type>
  </wpt>
  <wpt lat="56.028321" lon="12.731747">
    <name>4/5 15 km hel</name>
    <cmt>SÄTT UPP: Tidtagningsmatta 15 km marathon | Igång 07:45 | På gång- och cykelbanan</cmt>
    <desc>SÄTT UPP: Tidtagningsmatta 15 km marathon | Igång 07:45 | På gång- och cykelbanan</desc>
    <sym>Flag</sym>
    <type>Tidtagningspunkt</type>
  </wpt>
  <wpt lat="56.047556" lon="12.689811">
    <name>5/5 Start</name>
    <cmt>SÄTT UPP: Startmatta marathon | Igång 08:15 | Samma som tidigare år, vid dagvattenbrunnen</cmt>
    <desc>SÄTT UPP: Startmatta marathon | Igång 08:15 | Samma som tidigare år, vid dagvattenbrunnen</desc>
    <sym>Flag</sym>
    <type>Tidtagningspunkt</type>
  </wpt>
  <rte>
    <name>HBGM 26 Söder — Hans &amp; Erik (igång-ordning)</name>
    <rtept lat="56.008511" lon="12.723066">
      <name>1/5 5 km hel</name>
    </rtept>
    <rtept lat="56.007523" lon="12.753341">
      <name>2/5 10 km hel</name>
    </rtept>
    <rtept lat="56.011402" lon="12.753956">
      <name>3/5 Vxl 1 hel</name>
    </rtept>
    <rtept lat="56.028321" lon="12.731747">
      <name>4/5 15 km hel</name>
    </rtept>
    <rtept lat="56.047556" lon="12.689811">
      <name>5/5 Start</name>
    </rtept>
  </rte>
  <trk>
    <name>HBGM 26 Söder — Hans &amp; Erik (igång-ordning) körväg</name>
    <trkseg>
      <trkpt lat="56.008511" lon="12.723066"/>
      <trkpt lat="56.008555" lon="12.723167"/>
      <trkpt lat="56.008002" lon="12.723934"/>
      <trkpt lat="56.007174" lon="12.725106"/>
      <trkpt lat="56.006880" lon="12.725502"/>
      <trkpt lat="56.006023" lon="12.726703"/>
      <trkpt lat="56.005860" lon="12.726931"/>
      <trkpt lat="56.005377" lon="12.727614"/>
      <trkpt lat="56.004817" lon="12.728389"/>
      <trkpt lat="56.003744" lon="12.729871"/>
      <trkpt lat="56.003401" lon="12.730354"/>
      <trkpt lat="56.003343" lon="12.730435"/>
      <trkpt lat="56.003245" lon="12.730577"/>
      <trkpt lat="56.002709" lon="12.731348"/>
      <trkpt lat="56.001752" lon="12.732690"/>
      <trkpt lat="56.000891" lon="12.733898"/>
      <trkpt lat="56.000313" lon="12.734673"/>
      <trkpt lat="56.000262" lon="12.734748"/>
      <trkpt lat="56.000058" lon="12.735137"/>
      <trkpt lat="55.999722" lon="12.735769"/>
      <trkpt lat="55.999519" lon="12.736132"/>
      <trkpt lat="55.999211" lon="12.736764"/>
      <trkpt lat="55.998839" lon="12.737529"/>
      <trkpt lat="55.998552" lon="12.738014"/>
      <trkpt lat="55.998882" lon="12.738877"/>
      <trkpt lat="55.999141" lon="12.739552"/>
      <trkpt lat="55.999376" lon="12.740167"/>
      <trkpt lat="55.999388" lon="12.740259"/>
      <trkpt lat="55.999402" lon="12.740366"/>
      <trkpt lat="55.999668" lon="12.741306"/>
      <trkpt lat="55.999784" lon="12.741691"/>
      <trkpt lat="55.999847" lon="12.741917"/>
      <trkpt lat="55.999863" lon="12.741969"/>
      <trkpt lat="55.999944" lon="12.742240"/>
      <trkpt lat="55.999961" lon="12.742285"/>
      <trkpt lat="55.999996" lon="12.742376"/>
      <trkpt lat="56.000029" lon="12.742462"/>
      <trkpt lat="56.000081" lon="12.742560"/>
      <trkpt lat="56.000242" lon="12.742865"/>
      <trkpt lat="56.000276" lon="12.742929"/>
      <trkpt lat="56.000392" lon="12.743114"/>
      <trkpt lat="56.000431" lon="12.743186"/>
      <trkpt lat="56.000457" lon="12.743233"/>
      <trkpt lat="56.000528" lon="12.743367"/>
      <trkpt lat="56.000685" lon="12.743756"/>
      <trkpt lat="56.000759" lon="12.743971"/>
      <trkpt lat="56.000830" lon="12.744183"/>
      <trkpt lat="56.000916" lon="12.744564"/>
      <trkpt lat="56.000948" lon="12.744727"/>
      <trkpt lat="56.001001" lon="12.745021"/>
      <trkpt lat="56.001052" lon="12.745386"/>
      <trkpt lat="56.001082" lon="12.745652"/>
      <trkpt lat="56.001092" lon="12.745859"/>
      <trkpt lat="56.001101" lon="12.746089"/>
      <trkpt lat="56.001104" lon="12.746349"/>
      <trkpt lat="56.001100" lon="12.746621"/>
      <trkpt lat="56.001089" lon="12.746894"/>
      <trkpt lat="56.001078" lon="12.747034"/>
      <trkpt lat="56.001060" lon="12.747177"/>
      <trkpt lat="56.001049" lon="12.747307"/>
      <trkpt lat="56.001034" lon="12.747452"/>
      <trkpt lat="56.001007" lon="12.747846"/>
      <trkpt lat="56.000997" lon="12.748004"/>
      <trkpt lat="56.000984" lon="12.748414"/>
      <trkpt lat="56.000988" lon="12.748811"/>
      <trkpt lat="56.000991" lon="12.749177"/>
      <trkpt lat="56.000997" lon="12.749384"/>
      <trkpt lat="56.001007" lon="12.749572"/>
      <trkpt lat="56.001028" lon="12.749854"/>
      <trkpt lat="56.001055" lon="12.750112"/>
      <trkpt lat="56.001078" lon="12.750339"/>
      <trkpt lat="56.001142" lon="12.750920"/>
      <trkpt lat="56.001151" lon="12.751004"/>
      <trkpt lat="56.001221" lon="12.751522"/>
      <trkpt lat="56.001297" lon="12.751990"/>
      <trkpt lat="56.001449" lon="12.751915"/>
      <trkpt lat="56.001607" lon="12.751831"/>
      <trkpt lat="56.001735" lon="12.751774"/>
      <trkpt lat="56.001871" lon="12.751723"/>
      <trkpt lat="56.001945" lon="12.751706"/>
      <trkpt lat="56.002017" lon="12.751698"/>
      <trkpt lat="56.002186" lon="12.751690"/>
      <trkpt lat="56.002384" lon="12.751717"/>
      <trkpt lat="56.002540" lon="12.751761"/>
      <trkpt lat="56.002576" lon="12.751775"/>
      <trkpt lat="56.002770" lon="12.751899"/>
      <trkpt lat="56.002891" lon="12.751985"/>
      <trkpt lat="56.003003" lon="12.752087"/>
      <trkpt lat="56.003153" lon="12.752232"/>
      <trkpt lat="56.003328" lon="12.752391"/>
      <trkpt lat="56.003472" lon="12.752525"/>
      <trkpt lat="56.003597" lon="12.752641"/>
      <trkpt lat="56.003963" lon="12.752977"/>
      <trkpt lat="56.004415" lon="12.753383"/>
      <trkpt lat="56.004973" lon="12.753882"/>
      <trkpt lat="56.005033" lon="12.753936"/>
      <trkpt lat="56.005456" lon="12.752857"/>
      <trkpt lat="56.005803" lon="12.751979"/>
      <trkpt lat="56.006475" lon="12.752498"/>
      <trkpt lat="56.007201" lon="12.753061"/>
      <trkpt lat="56.007529" lon="12.753318"/>
      <trkpt lat="56.007523" lon="12.753341"/>
      <trkpt lat="56.007529" lon="12.753318"/>
      <trkpt lat="56.007201" lon="12.753061"/>
      <trkpt lat="56.006948" lon="12.754236"/>
      <trkpt lat="56.006738" lon="12.755331"/>
      <trkpt lat="56.006060" lon="12.754891"/>
      <trkpt lat="56.005477" lon="12.754363"/>
      <trkpt lat="56.005443" lon="12.754345"/>
      <trkpt lat="56.005405" lon="12.754342"/>
      <trkpt lat="56.005347" lon="12.754343"/>
      <trkpt lat="56.005354" lon="12.754402"/>
      <trkpt lat="56.005356" lon="12.754453"/>
      <trkpt lat="56.005355" lon="12.754514"/>
      <trkpt lat="56.005344" lon="12.754593"/>
      <trkpt lat="56.005275" lon="12.754908"/>
      <trkpt lat="56.005253" lon="12.755009"/>
      <trkpt lat="56.005139" lon="12.755529"/>
      <trkpt lat="56.005092" lon="12.755808"/>
      <trkpt lat="56.005046" lon="12.756146"/>
      <trkpt lat="56.005018" lon="12.756397"/>
      <trkpt lat="56.004993" lon="12.756664"/>
      <trkpt lat="56.004957" lon="12.757311"/>
      <trkpt lat="56.004947" lon="12.757534"/>
      <trkpt lat="56.004934" lon="12.757825"/>
      <trkpt lat="56.004864" lon="12.758712"/>
      <trkpt lat="56.004843" lon="12.759331"/>
      <trkpt lat="56.004839" lon="12.759564"/>
      <trkpt lat="56.004840" lon="12.759677"/>
      <trkpt lat="56.004842" lon="12.759843"/>
      <trkpt lat="56.004851" lon="12.760123"/>
      <trkpt lat="56.004860" lon="12.760375"/>
      <trkpt lat="56.004867" lon="12.760591"/>
      <trkpt lat="56.004893" lon="12.761066"/>
      <trkpt lat="56.004904" lon="12.761349"/>
      <trkpt lat="56.004905" lon="12.761526"/>
      <trkpt lat="56.004900" lon="12.761639"/>
      <trkpt lat="56.004853" lon="12.762191"/>
      <trkpt lat="56.005230" lon="12.762338"/>
      <trkpt lat="56.005562" lon="12.762440"/>
      <trkpt lat="56.005773" lon="12.762487"/>
      <trkpt lat="56.006092" lon="12.762538"/>
      <trkpt lat="56.006520" lon="12.762571"/>
      <trkpt lat="56.006747" lon="12.762581"/>
      <trkpt lat="56.007940" lon="12.762656"/>
      <trkpt lat="56.008125" lon="12.762675"/>
      <trkpt lat="56.008392" lon="12.762756"/>
      <trkpt lat="56.009155" lon="12.762928"/>
      <trkpt lat="56.009254" lon="12.762950"/>
      <trkpt lat="56.009346" lon="12.762976"/>
      <trkpt lat="56.009437" lon="12.763014"/>
      <trkpt lat="56.009546" lon="12.763075"/>
      <trkpt lat="56.009623" lon="12.763141"/>
      <trkpt lat="56.009703" lon="12.763225"/>
      <trkpt lat="56.009847" lon="12.763340"/>
      <trkpt lat="56.009864" lon="12.763376"/>
      <trkpt lat="56.009900" lon="12.763439"/>
      <trkpt lat="56.009940" lon="12.763492"/>
      <trkpt lat="56.009983" lon="12.763537"/>
      <trkpt lat="56.010029" lon="12.763571"/>
      <trkpt lat="56.010077" lon="12.763595"/>
      <trkpt lat="56.010127" lon="12.763608"/>
      <trkpt lat="56.010177" lon="12.763609"/>
      <trkpt lat="56.010227" lon="12.763600"/>
      <trkpt lat="56.010275" lon="12.763579"/>
      <trkpt lat="56.010322" lon="12.763548"/>
      <trkpt lat="56.010366" lon="12.763506"/>
      <trkpt lat="56.010407" lon="12.763455"/>
      <trkpt lat="56.010441" lon="12.763402"/>
      <trkpt lat="56.010475" lon="12.763331"/>
      <trkpt lat="56.010504" lon="12.763253"/>
      <trkpt lat="56.010528" lon="12.763169"/>
      <trkpt lat="56.010544" lon="12.763080"/>
      <trkpt lat="56.010555" lon="12.762988"/>
      <trkpt lat="56.010558" lon="12.762894"/>
      <trkpt lat="56.010554" lon="12.762801"/>
      <trkpt lat="56.010544" lon="12.762709"/>
      <trkpt lat="56.010526" lon="12.762620"/>
      <trkpt lat="56.010503" lon="12.762536"/>
      <trkpt lat="56.010473" lon="12.762458"/>
      <trkpt lat="56.010439" lon="12.762388"/>
      <trkpt lat="56.010399" lon="12.762327"/>
      <trkpt lat="56.010361" lon="12.762282"/>
      <trkpt lat="56.010321" lon="12.762246"/>
      <trkpt lat="56.010268" lon="12.762142"/>
      <trkpt lat="56.010234" lon="12.762062"/>
      <trkpt lat="56.010214" lon="12.761998"/>
      <trkpt lat="56.010206" lon="12.761938"/>
      <trkpt lat="56.010205" lon="12.761852"/>
      <trkpt lat="56.010229" lon="12.761284"/>
      <trkpt lat="56.010340" lon="12.761276"/>
      <trkpt lat="56.010511" lon="12.761276"/>
      <trkpt lat="56.010644" lon="12.761284"/>
      <trkpt lat="56.010781" lon="12.761303"/>
      <trkpt lat="56.010846" lon="12.761312"/>
      <trkpt lat="56.011088" lon="12.761369"/>
      <trkpt lat="56.011781" lon="12.761569"/>
      <trkpt lat="56.011871" lon="12.761592"/>
      <trkpt lat="56.012170" lon="12.761666"/>
      <trkpt lat="56.012245" lon="12.761675"/>
      <trkpt lat="56.012312" lon="12.761659"/>
      <trkpt lat="56.012367" lon="12.761629"/>
      <trkpt lat="56.012407" lon="12.761601"/>
      <trkpt lat="56.012436" lon="12.761566"/>
      <trkpt lat="56.012477" lon="12.761491"/>
      <trkpt lat="56.012508" lon="12.761413"/>
      <trkpt lat="56.012529" lon="12.761343"/>
      <trkpt lat="56.012542" lon="12.761266"/>
      <trkpt lat="56.012549" lon="12.761190"/>
      <trkpt lat="56.012552" lon="12.761160"/>
      <trkpt lat="56.012565" lon="12.760867"/>
      <trkpt lat="56.012586" lon="12.760425"/>
      <trkpt lat="56.012593" lon="12.760282"/>
      <trkpt lat="56.012649" lon="12.759091"/>
      <trkpt lat="56.012704" lon="12.757943"/>
      <trkpt lat="56.012760" lon="12.756612"/>
      <trkpt lat="56.012782" lon="12.756080"/>
      <trkpt lat="56.012805" lon="12.755611"/>
      <trkpt lat="56.012815" lon="12.755526"/>
      <trkpt lat="56.012831" lon="12.755435"/>
      <trkpt lat="56.012848" lon="12.755355"/>
      <trkpt lat="56.012872" lon="12.755274"/>
      <trkpt lat="56.012902" lon="12.755207"/>
      <trkpt lat="56.012932" lon="12.755159"/>
      <trkpt lat="56.012878" lon="12.755042"/>
      <trkpt lat="56.012837" lon="12.754978"/>
      <trkpt lat="56.012783" lon="12.754933"/>
      <trkpt lat="56.012716" lon="12.754910"/>
      <trkpt lat="56.012645" lon="12.754885"/>
      <trkpt lat="56.012301" lon="12.754833"/>
      <trkpt lat="56.012308" lon="12.754690"/>
      <trkpt lat="56.012308" lon="12.754690"/>
      <trkpt lat="56.012308" lon="12.754690"/>
      <trkpt lat="56.011402" lon="12.753956"/>
      <trkpt lat="56.012308" lon="12.754690"/>
      <trkpt lat="56.012301" lon="12.754833"/>
      <trkpt lat="56.012645" lon="12.754885"/>
      <trkpt lat="56.012716" lon="12.754910"/>
      <trkpt lat="56.012783" lon="12.754933"/>
      <trkpt lat="56.012837" lon="12.754978"/>
      <trkpt lat="56.012878" lon="12.755042"/>
      <trkpt lat="56.012932" lon="12.755159"/>
      <trkpt lat="56.012981" lon="12.755100"/>
      <trkpt lat="56.013025" lon="12.755060"/>
      <trkpt lat="56.013065" lon="12.755039"/>
      <trkpt lat="56.013115" lon="12.755019"/>
      <trkpt lat="56.013156" lon="12.755012"/>
      <trkpt lat="56.013716" lon="12.755087"/>
      <trkpt lat="56.013995" lon="12.755125"/>
      <trkpt lat="56.014220" lon="12.755171"/>
      <trkpt lat="56.014640" lon="12.755289"/>
      <trkpt lat="56.015052" lon="12.755405"/>
      <trkpt lat="56.015164" lon="12.755440"/>
      <trkpt lat="56.015259" lon="12.755483"/>
      <trkpt lat="56.015354" lon="12.755538"/>
      <trkpt lat="56.015438" lon="12.755611"/>
      <trkpt lat="56.015520" lon="12.755711"/>
      <trkpt lat="56.015581" lon="12.755801"/>
      <trkpt lat="56.015624" lon="12.755873"/>
      <trkpt lat="56.015669" lon="12.755962"/>
      <trkpt lat="56.015713" lon="12.756054"/>
      <trkpt lat="56.015757" lon="12.756189"/>
      <trkpt lat="56.015796" lon="12.756327"/>
      <trkpt lat="56.015820" lon="12.756442"/>
      <trkpt lat="56.015837" lon="12.756538"/>
      <trkpt lat="56.015858" lon="12.756691"/>
      <trkpt lat="56.015874" lon="12.756851"/>
      <trkpt lat="56.015906" lon="12.757260"/>
      <trkpt lat="56.015921" lon="12.757369"/>
      <trkpt lat="56.015942" lon="12.757477"/>
      <trkpt lat="56.015973" lon="12.757579"/>
      <trkpt lat="56.015995" lon="12.757655"/>
      <trkpt lat="56.016004" lon="12.757675"/>
      <trkpt lat="56.016016" lon="12.757702"/>
      <trkpt lat="56.016038" lon="12.757727"/>
      <trkpt lat="56.016069" lon="12.757752"/>
      <trkpt lat="56.016102" lon="12.757769"/>
      <trkpt lat="56.016184" lon="12.757795"/>
      <trkpt lat="56.016281" lon="12.757824"/>
      <trkpt lat="56.016305" lon="12.757877"/>
      <trkpt lat="56.016328" lon="12.757971"/>
      <trkpt lat="56.016343" lon="12.758048"/>
      <trkpt lat="56.016346" lon="12.758077"/>
      <trkpt lat="56.016358" lon="12.758169"/>
      <trkpt lat="56.016369" lon="12.758281"/>
      <trkpt lat="56.016377" lon="12.758360"/>
      <trkpt lat="56.016420" lon="12.758855"/>
      <trkpt lat="56.016479" lon="12.759551"/>
      <trkpt lat="56.016494" lon="12.759723"/>
      <trkpt lat="56.016526" lon="12.760090"/>
      <trkpt lat="56.016563" lon="12.760514"/>
      <trkpt lat="56.016635" lon="12.761381"/>
      <trkpt lat="56.016668" lon="12.761826"/>
      <trkpt lat="56.016671" lon="12.761882"/>
      <trkpt lat="56.016671" lon="12.761928"/>
      <trkpt lat="56.016670" lon="12.761972"/>
      <trkpt lat="56.016668" lon="12.762012"/>
      <trkpt lat="56.016639" lon="12.762053"/>
      <trkpt lat="56.016622" lon="12.762085"/>
      <trkpt lat="56.016609" lon="12.762120"/>
      <trkpt lat="56.016598" lon="12.762159"/>
      <trkpt lat="56.016590" lon="12.762200"/>
      <trkpt lat="56.016585" lon="12.762242"/>
      <trkpt lat="56.016584" lon="12.762286"/>
      <trkpt lat="56.016586" lon="12.762329"/>
      <trkpt lat="56.016592" lon="12.762371"/>
      <trkpt lat="56.016600" lon="12.762411"/>
      <trkpt lat="56.016611" lon="12.762449"/>
      <trkpt lat="56.016626" lon="12.762484"/>
      <trkpt lat="56.016643" lon="12.762515"/>
      <trkpt lat="56.016667" lon="12.762548"/>
      <trkpt lat="56.016694" lon="12.762573"/>
      <trkpt lat="56.016723" lon="12.762589"/>
      <trkpt lat="56.016754" lon="12.762596"/>
      <trkpt lat="56.016784" lon="12.762593"/>
      <trkpt lat="56.016814" lon="12.762581"/>
      <trkpt lat="56.016842" lon="12.762560"/>
      <trkpt lat="56.016868" lon="12.762531"/>
      <trkpt lat="56.016984" lon="12.762472"/>
      <trkpt lat="56.017056" lon="12.762420"/>
      <trkpt lat="56.017141" lon="12.762364"/>
      <trkpt lat="56.017208" lon="12.762326"/>
      <trkpt lat="56.017306" lon="12.762288"/>
      <trkpt lat="56.017784" lon="12.762129"/>
      <trkpt lat="56.018283" lon="12.761959"/>
      <trkpt lat="56.018671" lon="12.761830"/>
      <trkpt lat="56.019265" lon="12.761641"/>
      <trkpt lat="56.019406" lon="12.761595"/>
      <trkpt lat="56.019476" lon="12.761572"/>
      <trkpt lat="56.019465" lon="12.761490"/>
      <trkpt lat="56.019450" lon="12.761354"/>
      <trkpt lat="56.019435" lon="12.760932"/>
      <trkpt lat="56.019372" lon="12.760370"/>
      <trkpt lat="56.019347" lon="12.760172"/>
      <trkpt lat="56.019308" lon="12.759923"/>
      <trkpt lat="56.019266" lon="12.759732"/>
      <trkpt lat="56.019213" lon="12.759555"/>
      <trkpt lat="56.019152" lon="12.759394"/>
      <trkpt lat="56.019067" lon="12.759213"/>
      <trkpt lat="56.018967" lon="12.759039"/>
      <trkpt lat="56.018836" lon="12.758844"/>
      <trkpt lat="56.018515" lon="12.758403"/>
      <trkpt lat="56.018380" lon="12.758198"/>
      <trkpt lat="56.018226" lon="12.757926"/>
      <trkpt lat="56.018087" lon="12.757626"/>
      <trkpt lat="56.017962" lon="12.757305"/>
      <trkpt lat="56.017869" lon="12.757011"/>
      <trkpt lat="56.017775" lon="12.756653"/>
      <trkpt lat="56.017692" lon="12.756259"/>
      <trkpt lat="56.017337" lon="12.754139"/>
      <trkpt lat="56.017227" lon="12.753382"/>
      <trkpt lat="56.017144" lon="12.752793"/>
      <trkpt lat="56.016928" lon="12.751419"/>
      <trkpt lat="56.016736" lon="12.750261"/>
      <trkpt lat="56.016515" lon="12.748920"/>
      <trkpt lat="56.016365" lon="12.747875"/>
      <trkpt lat="56.016263" lon="12.747017"/>
      <trkpt lat="56.016226" lon="12.746642"/>
      <trkpt lat="56.016195" lon="12.746261"/>
      <trkpt lat="56.016173" lon="12.745867"/>
      <trkpt lat="56.016154" lon="12.745410"/>
      <trkpt lat="56.016147" lon="12.745061"/>
      <trkpt lat="56.016146" lon="12.744693"/>
      <trkpt lat="56.016153" lon="12.744306"/>
      <trkpt lat="56.016166" lon="12.743881"/>
      <trkpt lat="56.016191" lon="12.743488"/>
      <trkpt lat="56.016223" lon="12.743068"/>
      <trkpt lat="56.016261" lon="12.742650"/>
      <trkpt lat="56.016351" lon="12.741957"/>
      <trkpt lat="56.016412" lon="12.741538"/>
      <trkpt lat="56.016509" lon="12.741003"/>
      <trkpt lat="56.016583" lon="12.740658"/>
      <trkpt lat="56.016698" lon="12.740168"/>
      <trkpt lat="56.016830" lon="12.739656"/>
      <trkpt lat="56.016988" lon="12.739153"/>
      <trkpt lat="56.017287" lon="12.738277"/>
      <trkpt lat="56.017683" lon="12.737389"/>
      <trkpt lat="56.018000" lon="12.736760"/>
      <trkpt lat="56.018387" lon="12.736124"/>
      <trkpt lat="56.018678" lon="12.735684"/>
      <trkpt lat="56.019042" lon="12.735180"/>
      <trkpt lat="56.019720" lon="12.734380"/>
      <trkpt lat="56.021539" lon="12.732358"/>
      <trkpt lat="56.021801" lon="12.732226"/>
      <trkpt lat="56.022218" lon="12.731778"/>
      <trkpt lat="56.022648" lon="12.731278"/>
      <trkpt lat="56.023116" lon="12.730724"/>
      <trkpt lat="56.023554" lon="12.730253"/>
      <trkpt lat="56.023638" lon="12.730154"/>
      <trkpt lat="56.023726" lon="12.730071"/>
      <trkpt lat="56.023808" lon="12.730010"/>
      <trkpt lat="56.023885" lon="12.729951"/>
      <trkpt lat="56.023948" lon="12.729908"/>
      <trkpt lat="56.023981" lon="12.729886"/>
      <trkpt lat="56.024036" lon="12.729888"/>
      <trkpt lat="56.024081" lon="12.729907"/>
      <trkpt lat="56.024119" lon="12.729927"/>
      <trkpt lat="56.024157" lon="12.729961"/>
      <trkpt lat="56.024183" lon="12.729986"/>
      <trkpt lat="56.024212" lon="12.730016"/>
      <trkpt lat="56.024300" lon="12.730126"/>
      <trkpt lat="56.024342" lon="12.730185"/>
      <trkpt lat="56.024381" lon="12.730255"/>
      <trkpt lat="56.024460" lon="12.730415"/>
      <trkpt lat="56.024579" lon="12.730703"/>
      <trkpt lat="56.024706" lon="12.731022"/>
      <trkpt lat="56.024826" lon="12.731351"/>
      <trkpt lat="56.024940" lon="12.731676"/>
      <trkpt lat="56.025100" lon="12.732184"/>
      <trkpt lat="56.025255" lon="12.732732"/>
      <trkpt lat="56.025387" lon="12.733261"/>
      <trkpt lat="56.025468" lon="12.733623"/>
      <trkpt lat="56.025544" lon="12.733987"/>
      <trkpt lat="56.025590" lon="12.734225"/>
      <trkpt lat="56.025648" lon="12.734568"/>
      <trkpt lat="56.025689" lon="12.734800"/>
      <trkpt lat="56.025706" lon="12.734922"/>
      <trkpt lat="56.025708" lon="12.734984"/>
      <trkpt lat="56.025707" lon="12.735042"/>
      <trkpt lat="56.025706" lon="12.735091"/>
      <trkpt lat="56.025702" lon="12.735138"/>
      <trkpt lat="56.025698" lon="12.735181"/>
      <trkpt lat="56.025686" lon="12.735243"/>
      <trkpt lat="56.025675" lon="12.735291"/>
      <trkpt lat="56.025653" lon="12.735379"/>
      <trkpt lat="56.025622" lon="12.735509"/>
      <trkpt lat="56.025581" lon="12.735585"/>
      <trkpt lat="56.025544" lon="12.735696"/>
      <trkpt lat="56.025518" lon="12.735840"/>
      <trkpt lat="56.025511" lon="12.735960"/>
      <trkpt lat="56.025515" lon="12.736038"/>
      <trkpt lat="56.025518" lon="12.736084"/>
      <trkpt lat="56.025537" lon="12.736202"/>
      <trkpt lat="56.025571" lon="12.736312"/>
      <trkpt lat="56.025611" lon="12.736395"/>
      <trkpt lat="56.025664" lon="12.736479"/>
      <trkpt lat="56.025720" lon="12.736552"/>
      <trkpt lat="56.025774" lon="12.736606"/>
      <trkpt lat="56.025829" lon="12.736648"/>
      <trkpt lat="56.025897" lon="12.736675"/>
      <trkpt lat="56.025975" lon="12.736680"/>
      <trkpt lat="56.026050" lon="12.736660"/>
      <trkpt lat="56.026094" lon="12.736634"/>
      <trkpt lat="56.026146" lon="12.736584"/>
      <trkpt lat="56.026179" lon="12.736550"/>
      <trkpt lat="56.026214" lon="12.736500"/>
      <trkpt lat="56.026245" lon="12.736440"/>
      <trkpt lat="56.026270" lon="12.736382"/>
      <trkpt lat="56.026292" lon="12.736322"/>
      <trkpt lat="56.026312" lon="12.736251"/>
      <trkpt lat="56.026329" lon="12.736169"/>
      <trkpt lat="56.026343" lon="12.736086"/>
      <trkpt lat="56.026349" lon="12.736005"/>
      <trkpt lat="56.026386" lon="12.735826"/>
      <trkpt lat="56.026410" lon="12.735733"/>
      <trkpt lat="56.026418" lon="12.735700"/>
      <trkpt lat="56.026455" lon="12.735582"/>
      <trkpt lat="56.026498" lon="12.735471"/>
      <trkpt lat="56.026512" lon="12.735439"/>
      <trkpt lat="56.026545" lon="12.735367"/>
      <trkpt lat="56.026583" lon="12.735298"/>
      <trkpt lat="56.026765" lon="12.735020"/>
      <trkpt lat="56.027002" lon="12.734655"/>
      <trkpt lat="56.027134" lon="12.734447"/>
      <trkpt lat="56.027329" lon="12.734150"/>
      <trkpt lat="56.027582" lon="12.733763"/>
      <trkpt lat="56.027776" lon="12.733451"/>
      <trkpt lat="56.027831" lon="12.733329"/>
      <trkpt lat="56.027866" lon="12.733228"/>
      <trkpt lat="56.027882" lon="12.733179"/>
      <trkpt lat="56.027898" lon="12.733101"/>
      <trkpt lat="56.027914" lon="12.733020"/>
      <trkpt lat="56.027926" lon="12.732940"/>
      <trkpt lat="56.027936" lon="12.732783"/>
      <trkpt lat="56.027947" lon="12.732557"/>
      <trkpt lat="56.027948" lon="12.732486"/>
      <trkpt lat="56.027949" lon="12.732322"/>
      <trkpt lat="56.027971" lon="12.732194"/>
      <trkpt lat="56.027996" lon="12.732088"/>
      <trkpt lat="56.028029" lon="12.731960"/>
      <trkpt lat="56.028053" lon="12.731883"/>
      <trkpt lat="56.028101" lon="12.731818"/>
      <trkpt lat="56.028146" lon="12.731755"/>
      <trkpt lat="56.028222" lon="12.731675"/>
      <trkpt lat="56.028287" lon="12.731619"/>
      <trkpt lat="56.028321" lon="12.731747"/>
      <trkpt lat="56.028287" lon="12.731619"/>
      <trkpt lat="56.028325" lon="12.731586"/>
      <trkpt lat="56.028415" lon="12.731507"/>
      <trkpt lat="56.028518" lon="12.731441"/>
      <trkpt lat="56.028540" lon="12.731420"/>
      <trkpt lat="56.028618" lon="12.731349"/>
      <trkpt lat="56.028708" lon="12.731256"/>
      <trkpt lat="56.028820" lon="12.731112"/>
      <trkpt lat="56.028847" lon="12.731066"/>
      <trkpt lat="56.028964" lon="12.730872"/>
      <trkpt lat="56.029072" lon="12.730622"/>
      <trkpt lat="56.029108" lon="12.730538"/>
      <trkpt lat="56.029206" lon="12.730288"/>
      <trkpt lat="56.029224" lon="12.730242"/>
      <trkpt lat="56.029256" lon="12.730161"/>
      <trkpt lat="56.029330" lon="12.729961"/>
      <trkpt lat="56.029379" lon="12.729834"/>
      <trkpt lat="56.029524" lon="12.729604"/>
      <trkpt lat="56.029570" lon="12.729537"/>
      <trkpt lat="56.029763" lon="12.729255"/>
      <trkpt lat="56.029782" lon="12.729230"/>
      <trkpt lat="56.029826" lon="12.729167"/>
      <trkpt lat="56.029850" lon="12.729131"/>
      <trkpt lat="56.029921" lon="12.729017"/>
      <trkpt lat="56.029935" lon="12.728994"/>
      <trkpt lat="56.030011" lon="12.728853"/>
      <trkpt lat="56.030075" lon="12.728693"/>
      <trkpt lat="56.030119" lon="12.728541"/>
      <trkpt lat="56.030171" lon="12.728298"/>
      <trkpt lat="56.030216" lon="12.728146"/>
      <trkpt lat="56.030283" lon="12.728031"/>
      <trkpt lat="56.030338" lon="12.727964"/>
      <trkpt lat="56.030408" lon="12.727914"/>
      <trkpt lat="56.030396" lon="12.727842"/>
      <trkpt lat="56.030392" lon="12.727609"/>
      <trkpt lat="56.030261" lon="12.726578"/>
      <trkpt lat="56.030180" lon="12.725999"/>
      <trkpt lat="56.030108" lon="12.725497"/>
      <trkpt lat="56.030057" lon="12.725132"/>
      <trkpt lat="56.029993" lon="12.724687"/>
      <trkpt lat="56.029941" lon="12.724372"/>
      <trkpt lat="56.029925" lon="12.724270"/>
      <trkpt lat="56.029879" lon="12.723982"/>
      <trkpt lat="56.029809" lon="12.723512"/>
      <trkpt lat="56.029781" lon="12.723250"/>
      <trkpt lat="56.029760" lon="12.722953"/>
      <trkpt lat="56.029754" lon="12.722722"/>
      <trkpt lat="56.029757" lon="12.722471"/>
      <trkpt lat="56.029766" lon="12.722228"/>
      <trkpt lat="56.029785" lon="12.721973"/>
      <trkpt lat="56.029812" lon="12.721664"/>
      <trkpt lat="56.029861" lon="12.721316"/>
      <trkpt lat="56.029912" lon="12.721057"/>
      <trkpt lat="56.029962" lon="12.720849"/>
      <trkpt lat="56.030034" lon="12.720602"/>
      <trkpt lat="56.030110" lon="12.720358"/>
      <trkpt lat="56.030195" lon="12.720128"/>
      <trkpt lat="56.030295" lon="12.719890"/>
      <trkpt lat="56.030386" lon="12.719697"/>
      <trkpt lat="56.030486" lon="12.719515"/>
      <trkpt lat="56.030625" lon="12.719280"/>
      <trkpt lat="56.030826" lon="12.718964"/>
      <trkpt lat="56.031002" lon="12.718712"/>
      <trkpt lat="56.031130" lon="12.718551"/>
      <trkpt lat="56.031221" lon="12.718440"/>
      <trkpt lat="56.031376" lon="12.718257"/>
      <trkpt lat="56.031637" lon="12.717879"/>
      <trkpt lat="56.032131" lon="12.717486"/>
      <trkpt lat="56.033420" lon="12.716408"/>
      <trkpt lat="56.034409" lon="12.715591"/>
      <trkpt lat="56.034660" lon="12.715382"/>
      <trkpt lat="56.034693" lon="12.715352"/>
      <trkpt lat="56.034768" lon="12.715283"/>
      <trkpt lat="56.034856" lon="12.715169"/>
      <trkpt lat="56.034904" lon="12.715096"/>
      <trkpt lat="56.034972" lon="12.714964"/>
      <trkpt lat="56.035023" lon="12.714853"/>
      <trkpt lat="56.035080" lon="12.714750"/>
      <trkpt lat="56.035159" lon="12.714640"/>
      <trkpt lat="56.035245" lon="12.714559"/>
      <trkpt lat="56.035351" lon="12.714434"/>
      <trkpt lat="56.035394" lon="12.714402"/>
      <trkpt lat="56.035432" lon="12.714355"/>
      <trkpt lat="56.035464" lon="12.714302"/>
      <trkpt lat="56.035527" lon="12.714132"/>
      <trkpt lat="56.035552" lon="12.714009"/>
      <trkpt lat="56.035569" lon="12.713883"/>
      <trkpt lat="56.035576" lon="12.713745"/>
      <trkpt lat="56.035563" lon="12.713585"/>
      <trkpt lat="56.035544" lon="12.713513"/>
      <trkpt lat="56.035518" lon="12.713430"/>
      <trkpt lat="56.035488" lon="12.713357"/>
      <trkpt lat="56.035432" lon="12.713208"/>
      <trkpt lat="56.035410" lon="12.713119"/>
      <trkpt lat="56.035396" lon="12.713023"/>
      <trkpt lat="56.035380" lon="12.712895"/>
      <trkpt lat="56.035373" lon="12.712750"/>
      <trkpt lat="56.035370" lon="12.712641"/>
      <trkpt lat="56.035362" lon="12.712390"/>
      <trkpt lat="56.035353" lon="12.711856"/>
      <trkpt lat="56.035349" lon="12.711359"/>
      <trkpt lat="56.035344" lon="12.710597"/>
      <trkpt lat="56.035343" lon="12.710340"/>
      <trkpt lat="56.035339" lon="12.709399"/>
      <trkpt lat="56.035317" lon="12.707891"/>
      <trkpt lat="56.035311" lon="12.707400"/>
      <trkpt lat="56.035325" lon="12.706967"/>
      <trkpt lat="56.035333" lon="12.706835"/>
      <trkpt lat="56.035361" lon="12.706127"/>
      <trkpt lat="56.035371" lon="12.705797"/>
      <trkpt lat="56.035386" lon="12.705435"/>
      <trkpt lat="56.035395" lon="12.705235"/>
      <trkpt lat="56.035403" lon="12.705047"/>
      <trkpt lat="56.035433" lon="12.704659"/>
      <trkpt lat="56.035456" lon="12.704471"/>
      <trkpt lat="56.035481" lon="12.704301"/>
      <trkpt lat="56.035521" lon="12.704104"/>
      <trkpt lat="56.035578" lon="12.703887"/>
      <trkpt lat="56.035625" lon="12.703739"/>
      <trkpt lat="56.035683" lon="12.703584"/>
      <trkpt lat="56.035746" lon="12.703434"/>
      <trkpt lat="56.035873" lon="12.703209"/>
      <trkpt lat="56.035984" lon="12.703043"/>
      <trkpt lat="56.036098" lon="12.702892"/>
      <trkpt lat="56.036350" lon="12.702593"/>
      <trkpt lat="56.036745" lon="12.702159"/>
      <trkpt lat="56.036938" lon="12.701949"/>
      <trkpt lat="56.037863" lon="12.701025"/>
      <trkpt lat="56.039327" lon="12.699655"/>
      <trkpt lat="56.039437" lon="12.699557"/>
      <trkpt lat="56.039957" lon="12.699092"/>
      <trkpt lat="56.040151" lon="12.698937"/>
      <trkpt lat="56.040577" lon="12.698596"/>
      <trkpt lat="56.040657" lon="12.698530"/>
      <trkpt lat="56.040808" lon="12.698413"/>
      <trkpt lat="56.041196" lon="12.698111"/>
      <trkpt lat="56.041417" lon="12.697930"/>
      <trkpt lat="56.041545" lon="12.697810"/>
      <trkpt lat="56.041608" lon="12.697758"/>
      <trkpt lat="56.041653" lon="12.697715"/>
      <trkpt lat="56.041855" lon="12.697520"/>
      <trkpt lat="56.042032" lon="12.697354"/>
      <trkpt lat="56.042651" lon="12.696759"/>
      <trkpt lat="56.042676" lon="12.696735"/>
      <trkpt lat="56.042726" lon="12.696689"/>
      <trkpt lat="56.042874" lon="12.696547"/>
      <trkpt lat="56.043026" lon="12.696391"/>
      <trkpt lat="56.043699" lon="12.695662"/>
      <trkpt lat="56.043734" lon="12.695625"/>
      <trkpt lat="56.043817" lon="12.695537"/>
      <trkpt lat="56.043907" lon="12.695443"/>
      <trkpt lat="56.044131" lon="12.695160"/>
      <trkpt lat="56.044190" lon="12.695090"/>
      <trkpt lat="56.044532" lon="12.694749"/>
      <trkpt lat="56.044625" lon="12.694651"/>
      <trkpt lat="56.044692" lon="12.694580"/>
      <trkpt lat="56.044732" lon="12.694538"/>
      <trkpt lat="56.045041" lon="12.694216"/>
      <trkpt lat="56.045333" lon="12.693885"/>
      <trkpt lat="56.045781" lon="12.693363"/>
      <trkpt lat="56.045904" lon="12.693217"/>
      <trkpt lat="56.045938" lon="12.693179"/>
      <trkpt lat="56.046040" lon="12.693065"/>
      <trkpt lat="56.046183" lon="12.692901"/>
      <trkpt lat="56.046126" lon="12.692748"/>
      <trkpt lat="56.046041" lon="12.692456"/>
      <trkpt lat="56.046035" lon="12.692405"/>
      <trkpt lat="56.046041" lon="12.692345"/>
      <trkpt lat="56.046076" lon="12.692207"/>
      <trkpt lat="56.046082" lon="12.692129"/>
      <trkpt lat="56.046080" lon="12.692051"/>
      <trkpt lat="56.046076" lon="12.691999"/>
      <trkpt lat="56.046070" lon="12.691947"/>
      <trkpt lat="56.046020" lon="12.691649"/>
      <trkpt lat="56.045872" lon="12.690939"/>
      <trkpt lat="56.045903" lon="12.690918"/>
      <trkpt lat="56.046638" lon="12.690416"/>
      <trkpt lat="56.046753" lon="12.690337"/>
      <trkpt lat="56.047459" lon="12.689848"/>
      <trkpt lat="56.047549" lon="12.689781"/>
      <trkpt lat="56.047556" lon="12.689811"/>
    </trkseg>
  </trk>
</gpx>
