<?xml version="1.0" encoding="UTF-8"?>
<gpx version="1.1" creator="HBGM 26 mattor"
 xmlns="http://www.topografix.com/GPX/1/1">
  <metadata>
    <name>HBGM 26 Norr — Susanne &amp; Liam (igång-ordning)</name>
    <desc>Körrutt i igång-ordning: tidigast igång först.</desc>
  </metadata>
  <wpt lat="56.071272" lon="12.692678">
    <name>1/7 10 km halv</name>
    <cmt>SÄTT UPP: Tidtagningsmatta 10 km halvmaraton | Igång 06:30</cmt>
    <desc>SÄTT UPP: Tidtagningsmatta 10 km halvmaraton | Igång 06:30</desc>
    <sym>Flag</sym>
    <type>Tidtagningspunkt</type>
  </wpt>
  <wpt lat="56.082616" lon="12.662936">
    <name>2/7 Vxl 3 halv</name>
    <cmt>SÄTT UPP: Växlingsmatta stafett 21 km, växling 3 | Igång 07:30 | Där grusvägen möter gräset. 2 m från vallen som vätter mot cykelbanan</cmt>
    <desc>SÄTT UPP: Växlingsmatta stafett 21 km, växling 3 | Igång 07:30 | Där grusvägen möter gräset. 2 m från vallen som vätter mot cykelbanan</desc>
    <sym>Flag</sym>
    <type>Tidtagningspunkt</type>
  </wpt>
  <wpt lat="56.095366" lon="12.659196">
    <name>3/7 15 km halv</name>
    <cmt>SÄTT UPP: Tidtagningsmatta 15 km halvmaraton | Igång 08:00</cmt>
    <desc>SÄTT UPP: Tidtagningsmatta 15 km halvmaraton | Igång 08:00</desc>
    <sym>Flag</sym>
    <type>Tidtagningspunkt</type>
  </wpt>
  <wpt lat="56.063445" lon="12.678469">
    <name>4/7 20 km halv</name>
    <cmt>SÄTT UPP: Tidtagningsmatta 20 km halvmaraton | Igång 08:30</cmt>
    <desc>SÄTT UPP: Tidtagningsmatta 20 km halvmaraton | Igång 08:30</desc>
    <sym>Flag</sym>
    <type>Tidtagningspunkt</type>
  </wpt>
  <wpt lat="56.073385" lon="12.670776">
    <name>5/7 Vxl 3 hel</name>
    <cmt>SÄTT UPP: Växlingsmatta stafett 42 km växling 3 / 21 km växling 2 | Igång 09:00 | Där grusparkeringen börjar</cmt>
    <desc>SÄTT UPP: Växlingsmatta stafett 42 km växling 3 / 21 km växling 2 | Igång 09:00 | Där grusparkeringen börjar</desc>
    <sym>Flag</sym>
    <type>Tidtagningspunkt</type>
  </wpt>
  <wpt lat="56.078353" lon="12.684230">
    <name>6/7 30 km hel</name>
    <cmt>SÄTT UPP: Tidtagningsmatta 30 km marathon | Igång 09:30 | Mellan de två små husen, några meter innan km 30. Precis innan vätskestationen på grusvägen</cmt>
    <desc>SÄTT UPP: Tidtagningsmatta 30 km marathon | Igång 09:30 | Mellan de två små husen, några meter innan km 30. Precis innan vätskestationen på grusvägen</desc>
    <sym>Flag</sym>
    <type>Tidtagningspunkt</type>
  </wpt>
  <wpt lat="56.089150" lon="12.665898">
    <name>7/7 35 km hel</name>
    <cmt>SÄTT UPP: Tidtagningsmatta 35 km marathon | Igång 10:00 | På cykelbanan innan tunneln</cmt>
    <desc>SÄTT UPP: Tidtagningsmatta 35 km marathon | Igång 10:00 | På cykelbanan innan tunneln</desc>
    <sym>Flag</sym>
    <type>Tidtagningspunkt</type>
  </wpt>
  <rte>
    <name>HBGM 26 Norr — Susanne &amp; Liam (igång-ordning)</name>
    <rtept lat="56.071272" lon="12.692678">
      <name>1/7 10 km halv</name>
    </rtept>
    <rtept lat="56.082616" lon="12.662936">
      <name>2/7 Vxl 3 halv</name>
    </rtept>
    <rtept lat="56.095366" lon="12.659196">
      <name>3/7 15 km halv</name>
    </rtept>
    <rtept lat="56.063445" lon="12.678469">
      <name>4/7 20 km halv</name>
    </rtept>
    <rtept lat="56.073385" lon="12.670776">
      <name>5/7 Vxl 3 hel</name>
    </rtept>
    <rtept lat="56.078353" lon="12.684230">
      <name>6/7 30 km hel</name>
    </rtept>
    <rtept lat="56.089150" lon="12.665898">
      <name>7/7 35 km hel</name>
    </rtept>
  </rte>
  <trk>
    <name>HBGM 26 Norr — Susanne &amp; Liam (igång-ordning) körväg</name>
    <trkseg>
      <trkpt lat="56.071272" lon="12.692678"/>
      <trkpt lat="56.071241" lon="12.692696"/>
      <trkpt lat="56.071252" lon="12.692754"/>
      <trkpt lat="56.071333" lon="12.693199"/>
      <trkpt lat="56.071337" lon="12.693258"/>
      <trkpt lat="56.071338" lon="12.693294"/>
      <trkpt lat="56.071337" lon="12.693321"/>
      <trkpt lat="56.071332" lon="12.693328"/>
      <trkpt lat="56.071305" lon="12.693357"/>
      <trkpt lat="56.071282" lon="12.693374"/>
      <trkpt lat="56.071250" lon="12.693392"/>
      <trkpt lat="56.071233" lon="12.693399"/>
      <trkpt lat="56.071215" lon="12.693407"/>
      <trkpt lat="56.071165" lon="12.693421"/>
      <trkpt lat="56.070942" lon="12.693359"/>
      <trkpt lat="56.070818" lon="12.693323"/>
      <trkpt lat="56.070674" lon="12.693287"/>
      <trkpt lat="56.070531" lon="12.693250"/>
      <trkpt lat="56.069981" lon="12.693080"/>
      <trkpt lat="56.069913" lon="12.693066"/>
      <trkpt lat="56.069223" lon="12.692909"/>
      <trkpt lat="56.068307" lon="12.692698"/>
      <trkpt lat="56.068146" lon="12.692664"/>
      <trkpt lat="56.067988" lon="12.692651"/>
      <trkpt lat="56.067466" lon="12.692672"/>
      <trkpt lat="56.067368" lon="12.692681"/>
      <trkpt lat="56.067223" lon="12.692692"/>
      <trkpt lat="56.067177" lon="12.692695"/>
      <trkpt lat="56.067124" lon="12.692698"/>
      <trkpt lat="56.067054" lon="12.692701"/>
      <trkpt lat="56.066268" lon="12.692758"/>
      <trkpt lat="56.066006" lon="12.692776"/>
      <trkpt lat="56.065763" lon="12.692805"/>
      <trkpt lat="56.065495" lon="12.692871"/>
      <trkpt lat="56.065361" lon="12.692919"/>
      <trkpt lat="56.065236" lon="12.692976"/>
      <trkpt lat="56.064746" lon="12.693197"/>
      <trkpt lat="56.064199" lon="12.693475"/>
      <trkpt lat="56.064156" lon="12.693495"/>
      <trkpt lat="56.063856" lon="12.693639"/>
      <trkpt lat="56.063695" lon="12.693681"/>
      <trkpt lat="56.063623" lon="12.693692"/>
      <trkpt lat="56.063553" lon="12.693666"/>
      <trkpt lat="56.063477" lon="12.693611"/>
      <trkpt lat="56.063409" lon="12.693565"/>
      <trkpt lat="56.063148" lon="12.693393"/>
      <trkpt lat="56.063128" lon="12.693381"/>
      <trkpt lat="56.063024" lon="12.693315"/>
      <trkpt lat="56.062930" lon="12.693299"/>
      <trkpt lat="56.062951" lon="12.693141"/>
      <trkpt lat="56.062974" lon="12.692545"/>
      <trkpt lat="56.062987" lon="12.692207"/>
      <trkpt lat="56.063060" lon="12.691087"/>
      <trkpt lat="56.063065" lon="12.691014"/>
      <trkpt lat="56.063141" lon="12.689920"/>
      <trkpt lat="56.063198" lon="12.688686"/>
      <trkpt lat="56.063197" lon="12.688653"/>
      <trkpt lat="56.063199" lon="12.688030"/>
      <trkpt lat="56.063192" lon="12.687456"/>
      <trkpt lat="56.063194" lon="12.686973"/>
      <trkpt lat="56.063199" lon="12.686106"/>
      <trkpt lat="56.063200" lon="12.685761"/>
      <trkpt lat="56.063214" lon="12.685396"/>
      <trkpt lat="56.063233" lon="12.685171"/>
      <trkpt lat="56.063283" lon="12.684492"/>
      <trkpt lat="56.063314" lon="12.684155"/>
      <trkpt lat="56.063331" lon="12.683963"/>
      <trkpt lat="56.063408" lon="12.682900"/>
      <trkpt lat="56.063460" lon="12.681979"/>
      <trkpt lat="56.063464" lon="12.681825"/>
      <trkpt lat="56.063479" lon="12.681614"/>
      <trkpt lat="56.063483" lon="12.681497"/>
      <trkpt lat="56.063483" lon="12.681343"/>
      <trkpt lat="56.063479" lon="12.681224"/>
      <trkpt lat="56.063471" lon="12.681114"/>
      <trkpt lat="56.063457" lon="12.681011"/>
      <trkpt lat="56.063434" lon="12.680896"/>
      <trkpt lat="56.063407" lon="12.680786"/>
      <trkpt lat="56.063381" lon="12.680706"/>
      <trkpt lat="56.063276" lon="12.680445"/>
      <trkpt lat="56.063180" lon="12.680226"/>
      <trkpt lat="56.063105" lon="12.680050"/>
      <trkpt lat="56.063030" lon="12.679893"/>
      <trkpt lat="56.063804" lon="12.679305"/>
      <trkpt lat="56.063862" lon="12.679254"/>
      <trkpt lat="56.063874" lon="12.679232"/>
      <trkpt lat="56.063883" lon="12.679204"/>
      <trkpt lat="56.063889" lon="12.679167"/>
      <trkpt lat="56.063895" lon="12.679129"/>
      <trkpt lat="56.063906" lon="12.679013"/>
      <trkpt lat="56.063921" lon="12.678836"/>
      <trkpt lat="56.063932" lon="12.678698"/>
      <trkpt lat="56.064084" lon="12.678713"/>
      <trkpt lat="56.064146" lon="12.678709"/>
      <trkpt lat="56.064212" lon="12.678699"/>
      <trkpt lat="56.064263" lon="12.678681"/>
      <trkpt lat="56.064309" lon="12.678657"/>
      <trkpt lat="56.064438" lon="12.678551"/>
      <trkpt lat="56.064504" lon="12.678497"/>
      <trkpt lat="56.064572" lon="12.678435"/>
      <trkpt lat="56.064719" lon="12.678287"/>
      <trkpt lat="56.064809" lon="12.678196"/>
      <trkpt lat="56.064953" lon="12.678055"/>
      <trkpt lat="56.065037" lon="12.677973"/>
      <trkpt lat="56.065283" lon="12.677731"/>
      <trkpt lat="56.065651" lon="12.677373"/>
      <trkpt lat="56.065988" lon="12.677034"/>
      <trkpt lat="56.066232" lon="12.676772"/>
      <trkpt lat="56.066614" lon="12.676297"/>
      <trkpt lat="56.067015" lon="12.675784"/>
      <trkpt lat="56.067450" lon="12.675277"/>
      <trkpt lat="56.067690" lon="12.675006"/>
      <trkpt lat="56.067775" lon="12.674910"/>
      <trkpt lat="56.068042" lon="12.674606"/>
      <trkpt lat="56.068544" lon="12.674027"/>
      <trkpt lat="56.068831" lon="12.673691"/>
      <trkpt lat="56.068980" lon="12.673507"/>
      <trkpt lat="56.069416" lon="12.672945"/>
      <trkpt lat="56.069511" lon="12.672823"/>
      <trkpt lat="56.069871" lon="12.672347"/>
      <trkpt lat="56.070686" lon="12.671241"/>
      <trkpt lat="56.071271" lon="12.670447"/>
      <trkpt lat="56.071853" lon="12.669660"/>
      <trkpt lat="56.072275" lon="12.669100"/>
      <trkpt lat="56.072510" lon="12.668804"/>
      <trkpt lat="56.072550" lon="12.668756"/>
      <trkpt lat="56.072683" lon="12.668608"/>
      <trkpt lat="56.072834" lon="12.668434"/>
      <trkpt lat="56.073040" lon="12.668180"/>
      <trkpt lat="56.073263" lon="12.667919"/>
      <trkpt lat="56.073713" lon="12.667434"/>
      <trkpt lat="56.074039" lon="12.667110"/>
      <trkpt lat="56.074114" lon="12.667060"/>
      <trkpt lat="56.074310" lon="12.666928"/>
      <trkpt lat="56.074644" lon="12.666790"/>
      <trkpt lat="56.074915" lon="12.666704"/>
      <trkpt lat="56.075294" lon="12.666569"/>
      <trkpt lat="56.075688" lon="12.666356"/>
      <trkpt lat="56.076170" lon="12.666035"/>
      <trkpt lat="56.076203" lon="12.666014"/>
      <trkpt lat="56.077679" lon="12.665116"/>
      <trkpt lat="56.079267" lon="12.664156"/>
      <trkpt lat="56.079499" lon="12.664047"/>
      <trkpt lat="56.079786" lon="12.663903"/>
      <trkpt lat="56.079856" lon="12.663872"/>
      <trkpt lat="56.080038" lon="12.663792"/>
      <trkpt lat="56.080175" lon="12.663719"/>
      <trkpt lat="56.080237" lon="12.663685"/>
      <trkpt lat="56.080293" lon="12.663643"/>
      <trkpt lat="56.080369" lon="12.663578"/>
      <trkpt lat="56.080595" lon="12.663367"/>
      <trkpt lat="56.080768" lon="12.663236"/>
      <trkpt lat="56.080898" lon="12.663143"/>
      <trkpt lat="56.081005" lon="12.663091"/>
      <trkpt lat="56.081150" lon="12.663051"/>
      <trkpt lat="56.081356" lon="12.663034"/>
      <trkpt lat="56.081766" lon="12.663024"/>
      <trkpt lat="56.082283" lon="12.663076"/>
      <trkpt lat="56.082408" lon="12.663099"/>
      <trkpt lat="56.082505" lon="12.663137"/>
      <trkpt lat="56.082591" lon="12.663175"/>
      <trkpt lat="56.082688" lon="12.663221"/>
      <trkpt lat="56.082683" lon="12.663108"/>
      <trkpt lat="56.082648" lon="12.662964"/>
      <trkpt lat="56.082632" lon="12.662918"/>
      <trkpt lat="56.082616" lon="12.662936"/>
      <trkpt lat="56.082632" lon="12.662918"/>
      <trkpt lat="56.082648" lon="12.662964"/>
      <trkpt lat="56.082683" lon="12.663108"/>
      <trkpt lat="56.082688" lon="12.663221"/>
      <trkpt lat="56.082787" lon="12.663268"/>
      <trkpt lat="56.083044" lon="12.663390"/>
      <trkpt lat="56.083719" lon="12.663716"/>
      <trkpt lat="56.084058" lon="12.663871"/>
      <trkpt lat="56.084172" lon="12.663896"/>
      <trkpt lat="56.084276" lon="12.663897"/>
      <trkpt lat="56.084348" lon="12.663889"/>
      <trkpt lat="56.084513" lon="12.663829"/>
      <trkpt lat="56.084600" lon="12.663766"/>
      <trkpt lat="56.084983" lon="12.663370"/>
      <trkpt lat="56.085157" lon="12.663162"/>
      <trkpt lat="56.085390" lon="12.662880"/>
      <trkpt lat="56.085654" lon="12.662552"/>
      <trkpt lat="56.085862" lon="12.662287"/>
      <trkpt lat="56.085917" lon="12.662219"/>
      <trkpt lat="56.086082" lon="12.662014"/>
      <trkpt lat="56.086277" lon="12.661814"/>
      <trkpt lat="56.086429" lon="12.661694"/>
      <trkpt lat="56.086529" lon="12.661626"/>
      <trkpt lat="56.086575" lon="12.661596"/>
      <trkpt lat="56.086631" lon="12.661576"/>
      <trkpt lat="56.086738" lon="12.661560"/>
      <trkpt lat="56.086847" lon="12.661555"/>
      <trkpt lat="56.086925" lon="12.661562"/>
      <trkpt lat="56.087035" lon="12.661589"/>
      <trkpt lat="56.087140" lon="12.661629"/>
      <trkpt lat="56.087289" lon="12.661716"/>
      <trkpt lat="56.087424" lon="12.661850"/>
      <trkpt lat="56.087522" lon="12.661988"/>
      <trkpt lat="56.087577" lon="12.662060"/>
      <trkpt lat="56.087603" lon="12.662094"/>
      <trkpt lat="56.087707" lon="12.662246"/>
      <trkpt lat="56.087820" lon="12.662389"/>
      <trkpt lat="56.087937" lon="12.662514"/>
      <trkpt lat="56.088087" lon="12.662625"/>
      <trkpt lat="56.088194" lon="12.662680"/>
      <trkpt lat="56.088273" lon="12.662698"/>
      <trkpt lat="56.088340" lon="12.662703"/>
      <trkpt lat="56.088391" lon="12.662702"/>
      <trkpt lat="56.088448" lon="12.662692"/>
      <trkpt lat="56.088500" lon="12.662684"/>
      <trkpt lat="56.088579" lon="12.662664"/>
      <trkpt lat="56.088563" lon="12.662444"/>
      <trkpt lat="56.088545" lon="12.661895"/>
      <trkpt lat="56.088551" lon="12.661458"/>
      <trkpt lat="56.088581" lon="12.661078"/>
      <trkpt lat="56.088628" lon="12.660736"/>
      <trkpt lat="56.088699" lon="12.660370"/>
      <trkpt lat="56.088779" lon="12.660063"/>
      <trkpt lat="56.088962" lon="12.659518"/>
      <trkpt lat="56.088979" lon="12.659480"/>
      <trkpt lat="56.089096" lon="12.659202"/>
      <trkpt lat="56.089181" lon="12.658984"/>
      <trkpt lat="56.089359" lon="12.658696"/>
      <trkpt lat="56.089509" lon="12.658497"/>
      <trkpt lat="56.089653" lon="12.658332"/>
      <trkpt lat="56.089957" lon="12.658018"/>
      <trkpt lat="56.090038" lon="12.657934"/>
      <trkpt lat="56.090255" lon="12.657718"/>
      <trkpt lat="56.090281" lon="12.657693"/>
      <trkpt lat="56.090336" lon="12.657641"/>
      <trkpt lat="56.090410" lon="12.657578"/>
      <trkpt lat="56.090535" lon="12.657481"/>
      <trkpt lat="56.091498" lon="12.656790"/>
      <trkpt lat="56.091545" lon="12.656755"/>
      <trkpt lat="56.091644" lon="12.656684"/>
      <trkpt lat="56.091739" lon="12.656613"/>
      <trkpt lat="56.091835" lon="12.656542"/>
      <trkpt lat="56.092464" lon="12.656090"/>
      <trkpt lat="56.092730" lon="12.655902"/>
      <trkpt lat="56.092904" lon="12.655785"/>
      <trkpt lat="56.093353" lon="12.655498"/>
      <trkpt lat="56.093465" lon="12.655434"/>
      <trkpt lat="56.093599" lon="12.655361"/>
      <trkpt lat="56.093787" lon="12.655284"/>
      <trkpt lat="56.094003" lon="12.655240"/>
      <trkpt lat="56.094170" lon="12.655225"/>
      <trkpt lat="56.094439" lon="12.655214"/>
      <trkpt lat="56.094610" lon="12.655203"/>
      <trkpt lat="56.094882" lon="12.655180"/>
      <trkpt lat="56.094940" lon="12.655175"/>
      <trkpt lat="56.094952" lon="12.655301"/>
      <trkpt lat="56.095042" lon="12.656191"/>
      <trkpt lat="56.095099" lon="12.656744"/>
      <trkpt lat="56.095123" lon="12.656970"/>
      <trkpt lat="56.095199" lon="12.657747"/>
      <trkpt lat="56.095233" lon="12.658046"/>
      <trkpt lat="56.095319" lon="12.658907"/>
      <trkpt lat="56.095350" lon="12.659201"/>
      <trkpt lat="56.095366" lon="12.659196"/>
      <trkpt lat="56.095350" lon="12.659201"/>
      <trkpt lat="56.095319" lon="12.658907"/>
      <trkpt lat="56.095233" lon="12.658046"/>
      <trkpt lat="56.095199" lon="12.657747"/>
      <trkpt lat="56.095123" lon="12.656970"/>
      <trkpt lat="56.095099" lon="12.656744"/>
      <trkpt lat="56.095042" lon="12.656191"/>
      <trkpt lat="56.094952" lon="12.655301"/>
      <trkpt lat="56.094940" lon="12.655175"/>
      <trkpt lat="56.094882" lon="12.655180"/>
      <trkpt lat="56.094610" lon="12.655203"/>
      <trkpt lat="56.094439" lon="12.655214"/>
      <trkpt lat="56.094170" lon="12.655225"/>
      <trkpt lat="56.094003" lon="12.655240"/>
      <trkpt lat="56.093787" lon="12.655284"/>
      <trkpt lat="56.093599" lon="12.655361"/>
      <trkpt lat="56.093465" lon="12.655434"/>
      <trkpt lat="56.093353" lon="12.655498"/>
      <trkpt lat="56.092904" lon="12.655785"/>
      <trkpt lat="56.092730" lon="12.655902"/>
      <trkpt lat="56.092464" lon="12.656090"/>
      <trkpt lat="56.091835" lon="12.656542"/>
      <trkpt lat="56.091739" lon="12.656613"/>
      <trkpt lat="56.091644" lon="12.656684"/>
      <trkpt lat="56.091545" lon="12.656755"/>
      <trkpt lat="56.091498" lon="12.656790"/>
      <trkpt lat="56.090535" lon="12.657481"/>
      <trkpt lat="56.090410" lon="12.657578"/>
      <trkpt lat="56.090336" lon="12.657641"/>
      <trkpt lat="56.090281" lon="12.657693"/>
      <trkpt lat="56.090255" lon="12.657718"/>
      <trkpt lat="56.090038" lon="12.657934"/>
      <trkpt lat="56.089957" lon="12.658018"/>
      <trkpt lat="56.089653" lon="12.658332"/>
      <trkpt lat="56.089509" lon="12.658497"/>
      <trkpt lat="56.089359" lon="12.658696"/>
      <trkpt lat="56.089181" lon="12.658984"/>
      <trkpt lat="56.089097" lon="12.659102"/>
      <trkpt lat="56.088933" lon="12.659427"/>
      <trkpt lat="56.088831" lon="12.659694"/>
      <trkpt lat="56.088754" lon="12.659931"/>
      <trkpt lat="56.088680" lon="12.660209"/>
      <trkpt lat="56.088621" lon="12.660464"/>
      <trkpt lat="56.088580" lon="12.660713"/>
      <trkpt lat="56.088540" lon="12.660980"/>
      <trkpt lat="56.088501" lon="12.661350"/>
      <trkpt lat="56.088485" lon="12.661581"/>
      <trkpt lat="56.088478" lon="12.661817"/>
      <trkpt lat="56.088475" lon="12.662041"/>
      <trkpt lat="56.088478" lon="12.662250"/>
      <trkpt lat="56.088487" lon="12.662468"/>
      <trkpt lat="56.088500" lon="12.662684"/>
      <trkpt lat="56.088448" lon="12.662692"/>
      <trkpt lat="56.088391" lon="12.662702"/>
      <trkpt lat="56.088340" lon="12.662703"/>
      <trkpt lat="56.088273" lon="12.662698"/>
      <trkpt lat="56.088194" lon="12.662680"/>
      <trkpt lat="56.088087" lon="12.662625"/>
      <trkpt lat="56.087937" lon="12.662514"/>
      <trkpt lat="56.087820" lon="12.662389"/>
      <trkpt lat="56.087707" lon="12.662246"/>
      <trkpt lat="56.087603" lon="12.662094"/>
      <trkpt lat="56.087577" lon="12.662060"/>
      <trkpt lat="56.087522" lon="12.661988"/>
      <trkpt lat="56.087424" lon="12.661850"/>
      <trkpt lat="56.087289" lon="12.661716"/>
      <trkpt lat="56.087140" lon="12.661629"/>
      <trkpt lat="56.087035" lon="12.661589"/>
      <trkpt lat="56.086925" lon="12.661562"/>
      <trkpt lat="56.086847" lon="12.661555"/>
      <trkpt lat="56.086738" lon="12.661560"/>
      <trkpt lat="56.086631" lon="12.661576"/>
      <trkpt lat="56.086575" lon="12.661596"/>
      <trkpt lat="56.086529" lon="12.661626"/>
      <trkpt lat="56.086429" lon="12.661694"/>
      <trkpt lat="56.086277" lon="12.661814"/>
      <trkpt lat="56.086082" lon="12.662014"/>
      <trkpt lat="56.085917" lon="12.662219"/>
      <trkpt lat="56.085862" lon="12.662287"/>
      <trkpt lat="56.085654" lon="12.662552"/>
      <trkpt lat="56.085390" lon="12.662880"/>
      <trkpt lat="56.085157" lon="12.663162"/>
      <trkpt lat="56.084983" lon="12.663370"/>
      <trkpt lat="56.084600" lon="12.663766"/>
      <trkpt lat="56.084513" lon="12.663829"/>
      <trkpt lat="56.084348" lon="12.663889"/>
      <trkpt lat="56.084276" lon="12.663897"/>
      <trkpt lat="56.084172" lon="12.663896"/>
      <trkpt lat="56.084058" lon="12.663871"/>
      <trkpt lat="56.083719" lon="12.663716"/>
      <trkpt lat="56.083044" lon="12.663390"/>
      <trkpt lat="56.082787" lon="12.663268"/>
      <trkpt lat="56.082688" lon="12.663221"/>
      <trkpt lat="56.082591" lon="12.663175"/>
      <trkpt lat="56.082505" lon="12.663137"/>
      <trkpt lat="56.082408" lon="12.663099"/>
      <trkpt lat="56.082283" lon="12.663076"/>
      <trkpt lat="56.081766" lon="12.663024"/>
      <trkpt lat="56.081356" lon="12.663034"/>
      <trkpt lat="56.081150" lon="12.663051"/>
      <trkpt lat="56.081005" lon="12.663091"/>
      <trkpt lat="56.080898" lon="12.663143"/>
      <trkpt lat="56.080768" lon="12.663236"/>
      <trkpt lat="56.080595" lon="12.663367"/>
      <trkpt lat="56.080369" lon="12.663578"/>
      <trkpt lat="56.080293" lon="12.663643"/>
      <trkpt lat="56.080237" lon="12.663685"/>
      <trkpt lat="56.080175" lon="12.663719"/>
      <trkpt lat="56.080038" lon="12.663792"/>
      <trkpt lat="56.079856" lon="12.663872"/>
      <trkpt lat="56.079786" lon="12.663903"/>
      <trkpt lat="56.079499" lon="12.664047"/>
      <trkpt lat="56.079267" lon="12.664156"/>
      <trkpt lat="56.077679" lon="12.665116"/>
      <trkpt lat="56.076203" lon="12.666014"/>
      <trkpt lat="56.076170" lon="12.666035"/>
      <trkpt lat="56.075688" lon="12.666356"/>
      <trkpt lat="56.075294" lon="12.666569"/>
      <trkpt lat="56.074915" lon="12.666704"/>
      <trkpt lat="56.074644" lon="12.666790"/>
      <trkpt lat="56.074310" lon="12.666928"/>
      <trkpt lat="56.074114" lon="12.667060"/>
      <trkpt lat="56.074039" lon="12.667110"/>
      <trkpt lat="56.073713" lon="12.667434"/>
      <trkpt lat="56.073263" lon="12.667919"/>
      <trkpt lat="56.073040" lon="12.668180"/>
      <trkpt lat="56.072834" lon="12.668434"/>
      <trkpt lat="56.072683" lon="12.668608"/>
      <trkpt lat="56.072550" lon="12.668756"/>
      <trkpt lat="56.072510" lon="12.668804"/>
      <trkpt lat="56.072275" lon="12.669100"/>
      <trkpt lat="56.071853" lon="12.669660"/>
      <trkpt lat="56.071271" lon="12.670447"/>
      <trkpt lat="56.070686" lon="12.671241"/>
      <trkpt lat="56.069871" lon="12.672347"/>
      <trkpt lat="56.069511" lon="12.672823"/>
      <trkpt lat="56.069416" lon="12.672945"/>
      <trkpt lat="56.068980" lon="12.673507"/>
      <trkpt lat="56.068831" lon="12.673691"/>
      <trkpt lat="56.068544" lon="12.674027"/>
      <trkpt lat="56.068042" lon="12.674606"/>
      <trkpt lat="56.067775" lon="12.674910"/>
      <trkpt lat="56.067690" lon="12.675006"/>
      <trkpt lat="56.067450" lon="12.675277"/>
      <trkpt lat="56.067015" lon="12.675784"/>
      <trkpt lat="56.066614" lon="12.676297"/>
      <trkpt lat="56.066232" lon="12.676772"/>
      <trkpt lat="56.065988" lon="12.677034"/>
      <trkpt lat="56.065651" lon="12.677373"/>
      <trkpt lat="56.065283" lon="12.677731"/>
      <trkpt lat="56.065037" lon="12.677973"/>
      <trkpt lat="56.064953" lon="12.678055"/>
      <trkpt lat="56.064809" lon="12.678196"/>
      <trkpt lat="56.064719" lon="12.678287"/>
      <trkpt lat="56.064572" lon="12.678435"/>
      <trkpt lat="56.064504" lon="12.678497"/>
      <trkpt lat="56.064438" lon="12.678551"/>
      <trkpt lat="56.064309" lon="12.678657"/>
      <trkpt lat="56.064263" lon="12.678681"/>
      <trkpt lat="56.064212" lon="12.678699"/>
      <trkpt lat="56.064146" lon="12.678709"/>
      <trkpt lat="56.064084" lon="12.678713"/>
      <trkpt lat="56.063932" lon="12.678698"/>
      <trkpt lat="56.063841" lon="12.678682"/>
      <trkpt lat="56.063816" lon="12.678674"/>
      <trkpt lat="56.063774" lon="12.678660"/>
      <trkpt lat="56.063723" lon="12.678658"/>
      <trkpt lat="56.063617" lon="12.678694"/>
      <trkpt lat="56.063537" lon="12.678746"/>
      <trkpt lat="56.063512" lon="12.678764"/>
      <trkpt lat="56.063512" lon="12.678764"/>
      <trkpt lat="56.063512" lon="12.678764"/>
      <trkpt lat="56.063445" lon="12.678469"/>
      <trkpt lat="56.063512" lon="12.678764"/>
      <trkpt lat="56.063537" lon="12.678746"/>
      <trkpt lat="56.063617" lon="12.678694"/>
      <trkpt lat="56.063723" lon="12.678658"/>
      <trkpt lat="56.063774" lon="12.678660"/>
      <trkpt lat="56.063816" lon="12.678674"/>
      <trkpt lat="56.063841" lon="12.678682"/>
      <trkpt lat="56.063932" lon="12.678698"/>
      <trkpt lat="56.064084" lon="12.678713"/>
      <trkpt lat="56.064146" lon="12.678709"/>
      <trkpt lat="56.064212" lon="12.678699"/>
      <trkpt lat="56.064263" lon="12.678681"/>
      <trkpt lat="56.064309" lon="12.678657"/>
      <trkpt lat="56.064339" lon="12.678765"/>
      <trkpt lat="56.064356" lon="12.678830"/>
      <trkpt lat="56.064406" lon="12.678980"/>
      <trkpt lat="56.064471" lon="12.679170"/>
      <trkpt lat="56.064489" lon="12.679228"/>
      <trkpt lat="56.064544" lon="12.679397"/>
      <trkpt lat="56.064596" lon="12.679565"/>
      <trkpt lat="56.064681" lon="12.679835"/>
      <trkpt lat="56.064732" lon="12.680010"/>
      <trkpt lat="56.064766" lon="12.680152"/>
      <trkpt lat="56.064785" lon="12.680273"/>
      <trkpt lat="56.064803" lon="12.680445"/>
      <trkpt lat="56.064821" lon="12.680951"/>
      <trkpt lat="56.064831" lon="12.681055"/>
      <trkpt lat="56.064858" lon="12.681177"/>
      <trkpt lat="56.064897" lon="12.681347"/>
      <trkpt lat="56.064965" lon="12.681582"/>
      <trkpt lat="56.065052" lon="12.681816"/>
      <trkpt lat="56.065124" lon="12.681972"/>
      <trkpt lat="56.065189" lon="12.682079"/>
      <trkpt lat="56.065264" lon="12.682152"/>
      <trkpt lat="56.065359" lon="12.682181"/>
      <trkpt lat="56.065463" lon="12.682208"/>
      <trkpt lat="56.065538" lon="12.682188"/>
      <trkpt lat="56.065614" lon="12.682154"/>
      <trkpt lat="56.065717" lon="12.682065"/>
      <trkpt lat="56.066024" lon="12.681558"/>
      <trkpt lat="56.066110" lon="12.681428"/>
      <trkpt lat="56.066264" lon="12.681218"/>
      <trkpt lat="56.066383" lon="12.681090"/>
      <trkpt lat="56.066491" lon="12.680997"/>
      <trkpt lat="56.066709" lon="12.680840"/>
      <trkpt lat="56.067017" lon="12.680738"/>
      <trkpt lat="56.067252" lon="12.680670"/>
      <trkpt lat="56.067588" lon="12.680598"/>
      <trkpt lat="56.068040" lon="12.680557"/>
      <trkpt lat="56.068126" lon="12.680584"/>
      <trkpt lat="56.068180" lon="12.680629"/>
      <trkpt lat="56.068330" lon="12.680835"/>
      <trkpt lat="56.068467" lon="12.681058"/>
      <trkpt lat="56.068635" lon="12.681438"/>
      <trkpt lat="56.068754" lon="12.681706"/>
      <trkpt lat="56.068882" lon="12.681650"/>
      <trkpt lat="56.069114" lon="12.681409"/>
      <trkpt lat="56.069223" lon="12.681293"/>
      <trkpt lat="56.069276" lon="12.681216"/>
      <trkpt lat="56.069383" lon="12.681023"/>
      <trkpt lat="56.069562" lon="12.680684"/>
      <trkpt lat="56.069672" lon="12.680432"/>
      <trkpt lat="56.069733" lon="12.680223"/>
      <trkpt lat="56.069795" lon="12.679943"/>
      <trkpt lat="56.069854" lon="12.679725"/>
      <trkpt lat="56.069938" lon="12.679419"/>
      <trkpt lat="56.069958" lon="12.679376"/>
      <trkpt lat="56.070029" lon="12.679222"/>
      <trkpt lat="56.070134" lon="12.679067"/>
      <trkpt lat="56.070228" lon="12.678968"/>
      <trkpt lat="56.070318" lon="12.678893"/>
      <trkpt lat="56.070483" lon="12.678790"/>
      <trkpt lat="56.070580" lon="12.678723"/>
      <trkpt lat="56.070634" lon="12.678676"/>
      <trkpt lat="56.070680" lon="12.678489"/>
      <trkpt lat="56.070686" lon="12.678376"/>
      <trkpt lat="56.070662" lon="12.677761"/>
      <trkpt lat="56.070653" lon="12.677573"/>
      <trkpt lat="56.070606" lon="12.676660"/>
      <trkpt lat="56.070602" lon="12.676579"/>
      <trkpt lat="56.070594" lon="12.676413"/>
      <trkpt lat="56.070594" lon="12.676335"/>
      <trkpt lat="56.070602" lon="12.676254"/>
      <trkpt lat="56.070626" lon="12.676172"/>
      <trkpt lat="56.070659" lon="12.676094"/>
      <trkpt lat="56.070989" lon="12.675479"/>
      <trkpt lat="56.071372" lon="12.674988"/>
      <trkpt lat="56.071514" lon="12.674781"/>
      <trkpt lat="56.071658" lon="12.674569"/>
      <trkpt lat="56.071779" lon="12.674391"/>
      <trkpt lat="56.071925" lon="12.674154"/>
      <trkpt lat="56.072050" lon="12.673991"/>
      <trkpt lat="56.072173" lon="12.673890"/>
      <trkpt lat="56.072641" lon="12.673723"/>
      <trkpt lat="56.072875" lon="12.673622"/>
      <trkpt lat="56.073046" lon="12.673499"/>
      <trkpt lat="56.073374" lon="12.673243"/>
      <trkpt lat="56.073480" lon="12.673154"/>
      <trkpt lat="56.073541" lon="12.673081"/>
      <trkpt lat="56.073582" lon="12.673020"/>
      <trkpt lat="56.073614" lon="12.672950"/>
      <trkpt lat="56.073641" lon="12.672837"/>
      <trkpt lat="56.073657" lon="12.672703"/>
      <trkpt lat="56.073663" lon="12.672595"/>
      <trkpt lat="56.073656" lon="12.672463"/>
      <trkpt lat="56.073437" lon="12.671319"/>
      <trkpt lat="56.073390" lon="12.671044"/>
      <trkpt lat="56.073387" lon="12.670962"/>
      <trkpt lat="56.073383" lon="12.670776"/>
      <trkpt lat="56.073385" lon="12.670776"/>
      <trkpt lat="56.073383" lon="12.670776"/>
      <trkpt lat="56.073387" lon="12.670962"/>
      <trkpt lat="56.073390" lon="12.671044"/>
      <trkpt lat="56.073437" lon="12.671319"/>
      <trkpt lat="56.073656" lon="12.672463"/>
      <trkpt lat="56.073663" lon="12.672595"/>
      <trkpt lat="56.073657" lon="12.672703"/>
      <trkpt lat="56.073641" lon="12.672837"/>
      <trkpt lat="56.073614" lon="12.672950"/>
      <trkpt lat="56.073582" lon="12.673020"/>
      <trkpt lat="56.073541" lon="12.673081"/>
      <trkpt lat="56.073480" lon="12.673154"/>
      <trkpt lat="56.073374" lon="12.673243"/>
      <trkpt lat="56.073046" lon="12.673499"/>
      <trkpt lat="56.072875" lon="12.673622"/>
      <trkpt lat="56.072641" lon="12.673723"/>
      <trkpt lat="56.072173" lon="12.673890"/>
      <trkpt lat="56.072050" lon="12.673991"/>
      <trkpt lat="56.071925" lon="12.674154"/>
      <trkpt lat="56.071779" lon="12.674391"/>
      <trkpt lat="56.071658" lon="12.674569"/>
      <trkpt lat="56.071514" lon="12.674781"/>
      <trkpt lat="56.071372" lon="12.674988"/>
      <trkpt lat="56.070989" lon="12.675479"/>
      <trkpt lat="56.070659" lon="12.676094"/>
      <trkpt lat="56.070626" lon="12.676172"/>
      <trkpt lat="56.070602" lon="12.676254"/>
      <trkpt lat="56.070594" lon="12.676335"/>
      <trkpt lat="56.070594" lon="12.676413"/>
      <trkpt lat="56.070602" lon="12.676579"/>
      <trkpt lat="56.070606" lon="12.676660"/>
      <trkpt lat="56.070653" lon="12.677573"/>
      <trkpt lat="56.070662" lon="12.677761"/>
      <trkpt lat="56.070686" lon="12.678376"/>
      <trkpt lat="56.070680" lon="12.678489"/>
      <trkpt lat="56.070634" lon="12.678676"/>
      <trkpt lat="56.070580" lon="12.678723"/>
      <trkpt lat="56.070483" lon="12.678790"/>
      <trkpt lat="56.070318" lon="12.678893"/>
      <trkpt lat="56.070228" lon="12.678968"/>
      <trkpt lat="56.070134" lon="12.679067"/>
      <trkpt lat="56.070029" lon="12.679222"/>
      <trkpt lat="56.069958" lon="12.679376"/>
      <trkpt lat="56.069938" lon="12.679419"/>
      <trkpt lat="56.069854" lon="12.679725"/>
      <trkpt lat="56.069795" lon="12.679943"/>
      <trkpt lat="56.069733" lon="12.680223"/>
      <trkpt lat="56.069672" lon="12.680432"/>
      <trkpt lat="56.069562" lon="12.680684"/>
      <trkpt lat="56.069383" lon="12.681023"/>
      <trkpt lat="56.069276" lon="12.681216"/>
      <trkpt lat="56.069223" lon="12.681293"/>
      <trkpt lat="56.069114" lon="12.681409"/>
      <trkpt lat="56.069139" lon="12.681528"/>
      <trkpt lat="56.069356" lon="12.682720"/>
      <trkpt lat="56.069583" lon="12.683841"/>
      <trkpt lat="56.069631" lon="12.684089"/>
      <trkpt lat="56.069900" lon="12.685476"/>
      <trkpt lat="56.070038" lon="12.686234"/>
      <trkpt lat="56.070463" lon="12.688572"/>
      <trkpt lat="56.070727" lon="12.689963"/>
      <trkpt lat="56.070745" lon="12.690059"/>
      <trkpt lat="56.070846" lon="12.690570"/>
      <trkpt lat="56.071151" lon="12.692198"/>
      <trkpt lat="56.071252" lon="12.692754"/>
      <trkpt lat="56.071333" lon="12.693199"/>
      <trkpt lat="56.071337" lon="12.693258"/>
      <trkpt lat="56.071338" lon="12.693294"/>
      <trkpt lat="56.071337" lon="12.693321"/>
      <trkpt lat="56.071332" lon="12.693328"/>
      <trkpt lat="56.071320" lon="12.693350"/>
      <trkpt lat="56.071312" lon="12.693376"/>
      <trkpt lat="56.071306" lon="12.693404"/>
      <trkpt lat="56.071303" lon="12.693433"/>
      <trkpt lat="56.071304" lon="12.693463"/>
      <trkpt lat="56.071307" lon="12.693492"/>
      <trkpt lat="56.071314" lon="12.693519"/>
      <trkpt lat="56.071324" lon="12.693543"/>
      <trkpt lat="56.071336" lon="12.693564"/>
      <trkpt lat="56.071350" lon="12.693580"/>
      <trkpt lat="56.071365" lon="12.693591"/>
      <trkpt lat="56.071384" lon="12.693597"/>
      <trkpt lat="56.071403" lon="12.693595"/>
      <trkpt lat="56.071421" lon="12.693586"/>
      <trkpt lat="56.071438" lon="12.693569"/>
      <trkpt lat="56.071452" lon="12.693547"/>
      <trkpt lat="56.071464" lon="12.693519"/>
      <trkpt lat="56.071470" lon="12.693495"/>
      <trkpt lat="56.071483" lon="12.693453"/>
      <trkpt lat="56.071496" lon="12.693433"/>
      <trkpt lat="56.071514" lon="12.693411"/>
      <trkpt lat="56.071540" lon="12.693389"/>
      <trkpt lat="56.071626" lon="12.693348"/>
      <trkpt lat="56.072588" lon="12.692892"/>
      <trkpt lat="56.072672" lon="12.692853"/>
      <trkpt lat="56.073106" lon="12.692611"/>
      <trkpt lat="56.073554" lon="12.692374"/>
      <trkpt lat="56.073780" lon="12.692299"/>
      <trkpt lat="56.074025" lon="12.692286"/>
      <trkpt lat="56.074371" lon="12.692316"/>
      <trkpt lat="56.074895" lon="12.692373"/>
      <trkpt lat="56.075458" lon="12.692429"/>
      <trkpt lat="56.076655" lon="12.692548"/>
      <trkpt lat="56.076785" lon="12.692561"/>
      <trkpt lat="56.076804" lon="12.692374"/>
      <trkpt lat="56.076834" lon="12.692207"/>
      <trkpt lat="56.076854" lon="12.692098"/>
      <trkpt lat="56.076930" lon="12.691612"/>
      <trkpt lat="56.078226" lon="12.684154"/>
      <trkpt lat="56.078354" lon="12.684222"/>
      <trkpt lat="56.078353" lon="12.684230"/>
      <trkpt lat="56.078354" lon="12.684222"/>
      <trkpt lat="56.078226" lon="12.684154"/>
      <trkpt lat="56.076930" lon="12.691612"/>
      <trkpt lat="56.076854" lon="12.692098"/>
      <trkpt lat="56.076834" lon="12.692207"/>
      <trkpt lat="56.076804" lon="12.692374"/>
      <trkpt lat="56.076785" lon="12.692561"/>
      <trkpt lat="56.076484" lon="12.694973"/>
      <trkpt lat="56.076460" lon="12.695169"/>
      <trkpt lat="56.076337" lon="12.696155"/>
      <trkpt lat="56.076273" lon="12.696667"/>
      <trkpt lat="56.076269" lon="12.696704"/>
      <trkpt lat="56.075997" lon="12.698880"/>
      <trkpt lat="56.075990" lon="12.698939"/>
      <trkpt lat="56.075772" lon="12.700605"/>
      <trkpt lat="56.075738" lon="12.700719"/>
      <trkpt lat="56.075729" lon="12.700754"/>
      <trkpt lat="56.075698" lon="12.700848"/>
      <trkpt lat="56.075683" lon="12.700894"/>
      <trkpt lat="56.075658" lon="12.700917"/>
      <trkpt lat="56.075630" lon="12.700966"/>
      <trkpt lat="56.075612" lon="12.701029"/>
      <trkpt lat="56.075607" lon="12.701099"/>
      <trkpt lat="56.075615" lon="12.701168"/>
      <trkpt lat="56.075637" lon="12.701231"/>
      <trkpt lat="56.075666" lon="12.701274"/>
      <trkpt lat="56.075702" lon="12.701298"/>
      <trkpt lat="56.075741" lon="12.701299"/>
      <trkpt lat="56.075777" lon="12.701279"/>
      <trkpt lat="56.075809" lon="12.701236"/>
      <trkpt lat="56.075847" lon="12.701222"/>
      <trkpt lat="56.075920" lon="12.701203"/>
      <trkpt lat="56.076036" lon="12.701196"/>
      <trkpt lat="56.076729" lon="12.701358"/>
      <trkpt lat="56.076836" lon="12.701419"/>
      <trkpt lat="56.077066" lon="12.701475"/>
      <trkpt lat="56.077111" lon="12.701485"/>
      <trkpt lat="56.077202" lon="12.701500"/>
      <trkpt lat="56.077269" lon="12.701471"/>
      <trkpt lat="56.077585" lon="12.701542"/>
      <trkpt lat="56.077785" lon="12.701635"/>
      <trkpt lat="56.077853" lon="12.701693"/>
      <trkpt lat="56.077861" lon="12.701719"/>
      <trkpt lat="56.077871" lon="12.701743"/>
      <trkpt lat="56.077883" lon="12.701763"/>
      <trkpt lat="56.077907" lon="12.701790"/>
      <trkpt lat="56.077935" lon="12.701804"/>
      <trkpt lat="56.077964" lon="12.701804"/>
      <trkpt lat="56.077992" lon="12.701791"/>
      <trkpt lat="56.078007" lon="12.701777"/>
      <trkpt lat="56.078020" lon="12.701760"/>
      <trkpt lat="56.078101" lon="12.701722"/>
      <trkpt lat="56.078307" lon="12.701706"/>
      <trkpt lat="56.078880" lon="12.701837"/>
      <trkpt lat="56.079413" lon="12.701972"/>
      <trkpt lat="56.079544" lon="12.702026"/>
      <trkpt lat="56.079729" lon="12.702103"/>
      <trkpt lat="56.080233" lon="12.702330"/>
      <trkpt lat="56.080298" lon="12.702355"/>
      <trkpt lat="56.080395" lon="12.702395"/>
      <trkpt lat="56.080531" lon="12.702444"/>
      <trkpt lat="56.080647" lon="12.702531"/>
      <trkpt lat="56.080711" lon="12.702588"/>
      <trkpt lat="56.080794" lon="12.702697"/>
      <trkpt lat="56.080805" lon="12.702727"/>
      <trkpt lat="56.080817" lon="12.702754"/>
      <trkpt lat="56.080832" lon="12.702778"/>
      <trkpt lat="56.080846" lon="12.702945"/>
      <trkpt lat="56.080854" lon="12.703013"/>
      <trkpt lat="56.080859" lon="12.703189"/>
      <trkpt lat="56.080855" lon="12.703439"/>
      <trkpt lat="56.080842" lon="12.703582"/>
      <trkpt lat="56.080763" lon="12.704445"/>
      <trkpt lat="56.080708" lon="12.705050"/>
      <trkpt lat="56.080697" lon="12.705167"/>
      <trkpt lat="56.080655" lon="12.705363"/>
      <trkpt lat="56.080613" lon="12.705537"/>
      <trkpt lat="56.080582" lon="12.705630"/>
      <trkpt lat="56.080530" lon="12.705683"/>
      <trkpt lat="56.080491" lon="12.705765"/>
      <trkpt lat="56.080471" lon="12.705866"/>
      <trkpt lat="56.080471" lon="12.705956"/>
      <trkpt lat="56.080486" lon="12.706043"/>
      <trkpt lat="56.080514" lon="12.706118"/>
      <trkpt lat="56.080554" lon="12.706174"/>
      <trkpt lat="56.080591" lon="12.706203"/>
      <trkpt lat="56.080632" lon="12.706214"/>
      <trkpt lat="56.080786" lon="12.706383"/>
      <trkpt lat="56.080883" lon="12.706492"/>
      <trkpt lat="56.080976" lon="12.706678"/>
      <trkpt lat="56.081022" lon="12.706768"/>
      <trkpt lat="56.081244" lon="12.707210"/>
      <trkpt lat="56.081438" lon="12.707603"/>
      <trkpt lat="56.081481" lon="12.707689"/>
      <trkpt lat="56.081909" lon="12.708551"/>
      <trkpt lat="56.082129" lon="12.708994"/>
      <trkpt lat="56.083609" lon="12.711986"/>
      <trkpt lat="56.083817" lon="12.712416"/>
      <trkpt lat="56.084292" lon="12.713287"/>
      <trkpt lat="56.084557" lon="12.713724"/>
      <trkpt lat="56.084936" lon="12.714308"/>
      <trkpt lat="56.085115" lon="12.714579"/>
      <trkpt lat="56.085300" lon="12.714860"/>
      <trkpt lat="56.085445" lon="12.715173"/>
      <trkpt lat="56.085497" lon="12.715358"/>
      <trkpt lat="56.085528" lon="12.715547"/>
      <trkpt lat="56.085533" lon="12.715700"/>
      <trkpt lat="56.085521" lon="12.715843"/>
      <trkpt lat="56.085487" lon="12.716006"/>
      <trkpt lat="56.085452" lon="12.716101"/>
      <trkpt lat="56.085393" lon="12.716213"/>
      <trkpt lat="56.085329" lon="12.716288"/>
      <trkpt lat="56.085258" lon="12.716348"/>
      <trkpt lat="56.085190" lon="12.716379"/>
      <trkpt lat="56.085136" lon="12.716393"/>
      <trkpt lat="56.085101" lon="12.716394"/>
      <trkpt lat="56.085052" lon="12.716390"/>
      <trkpt lat="56.084994" lon="12.716371"/>
      <trkpt lat="56.084955" lon="12.716351"/>
      <trkpt lat="56.084914" lon="12.716323"/>
      <trkpt lat="56.084868" lon="12.716275"/>
      <trkpt lat="56.084821" lon="12.716208"/>
      <trkpt lat="56.084777" lon="12.716127"/>
      <trkpt lat="56.084736" lon="12.716024"/>
      <trkpt lat="56.084712" lon="12.715940"/>
      <trkpt lat="56.084692" lon="12.715835"/>
      <trkpt lat="56.084678" lon="12.715702"/>
      <trkpt lat="56.084681" lon="12.715563"/>
      <trkpt lat="56.084698" lon="12.715419"/>
      <trkpt lat="56.084739" lon="12.715249"/>
      <trkpt lat="56.084822" lon="12.715033"/>
      <trkpt lat="56.084945" lon="12.714757"/>
      <trkpt lat="56.085217" lon="12.714147"/>
      <trkpt lat="56.085507" lon="12.713557"/>
      <trkpt lat="56.085833" lon="12.712948"/>
      <trkpt lat="56.086168" lon="12.712360"/>
      <trkpt lat="56.086777" lon="12.711405"/>
      <trkpt lat="56.087266" lon="12.710733"/>
      <trkpt lat="56.089306" lon="12.708101"/>
      <trkpt lat="56.089936" lon="12.707267"/>
      <trkpt lat="56.090217" lon="12.706839"/>
      <trkpt lat="56.090420" lon="12.706527"/>
      <trkpt lat="56.090554" lon="12.706305"/>
      <trkpt lat="56.090909" lon="12.705664"/>
      <trkpt lat="56.091246" lon="12.704973"/>
      <trkpt lat="56.091580" lon="12.704189"/>
      <trkpt lat="56.091824" lon="12.703572"/>
      <trkpt lat="56.092015" lon="12.703022"/>
      <trkpt lat="56.092298" lon="12.702078"/>
      <trkpt lat="56.092475" lon="12.701403"/>
      <trkpt lat="56.092699" lon="12.700457"/>
      <trkpt lat="56.092812" lon="12.699876"/>
      <trkpt lat="56.092928" lon="12.699201"/>
      <trkpt lat="56.093061" lon="12.698261"/>
      <trkpt lat="56.093168" lon="12.697271"/>
      <trkpt lat="56.093185" lon="12.697055"/>
      <trkpt lat="56.093243" lon="12.696190"/>
      <trkpt lat="56.093294" lon="12.695063"/>
      <trkpt lat="56.093329" lon="12.694359"/>
      <trkpt lat="56.093415" lon="12.692339"/>
      <trkpt lat="56.093529" lon="12.690437"/>
      <trkpt lat="56.093645" lon="12.688974"/>
      <trkpt lat="56.093861" lon="12.686720"/>
      <trkpt lat="56.094277" lon="12.683388"/>
      <trkpt lat="56.094468" lon="12.682008"/>
      <trkpt lat="56.094611" lon="12.681049"/>
      <trkpt lat="56.094759" lon="12.680182"/>
      <trkpt lat="56.094680" lon="12.680135"/>
      <trkpt lat="56.094488" lon="12.679978"/>
      <trkpt lat="56.094286" lon="12.679799"/>
      <trkpt lat="56.094205" lon="12.679719"/>
      <trkpt lat="56.094056" lon="12.679553"/>
      <trkpt lat="56.093960" lon="12.679435"/>
      <trkpt lat="56.093860" lon="12.679296"/>
      <trkpt lat="56.093778" lon="12.679168"/>
      <trkpt lat="56.093699" lon="12.679032"/>
      <trkpt lat="56.093555" lon="12.678747"/>
      <trkpt lat="56.093484" lon="12.678595"/>
      <trkpt lat="56.093410" lon="12.678411"/>
      <trkpt lat="56.093344" lon="12.678235"/>
      <trkpt lat="56.093280" lon="12.678052"/>
      <trkpt lat="56.092493" lon="12.675608"/>
      <trkpt lat="56.091450" lon="12.672354"/>
      <trkpt lat="56.090753" lon="12.670186"/>
      <trkpt lat="56.090240" lon="12.668586"/>
      <trkpt lat="56.090196" lon="12.668448"/>
      <trkpt lat="56.089939" lon="12.667636"/>
      <trkpt lat="56.089898" lon="12.667507"/>
      <trkpt lat="56.089834" lon="12.667241"/>
      <trkpt lat="56.089824" lon="12.667112"/>
      <trkpt lat="56.089830" lon="12.666984"/>
      <trkpt lat="56.089841" lon="12.666950"/>
      <trkpt lat="56.089847" lon="12.666913"/>
      <trkpt lat="56.089849" lon="12.666853"/>
      <trkpt lat="56.089841" lon="12.666795"/>
      <trkpt lat="56.089823" lon="12.666744"/>
      <trkpt lat="56.089798" lon="12.666705"/>
      <trkpt lat="56.089767" lon="12.666681"/>
      <trkpt lat="56.089729" lon="12.666676"/>
      <trkpt lat="56.089678" lon="12.666613"/>
      <trkpt lat="56.089632" lon="12.666549"/>
      <trkpt lat="56.089497" lon="12.666267"/>
      <trkpt lat="56.089538" lon="12.666432"/>
      <trkpt lat="56.089444" lon="12.666492"/>
      <trkpt lat="56.089346" lon="12.666196"/>
      <trkpt lat="56.089279" lon="12.666084"/>
      <trkpt lat="56.089207" lon="12.666059"/>
      <trkpt lat="56.089161" lon="12.666069"/>
      <trkpt lat="56.089150" lon="12.665898"/>
    </trkseg>
  </trk>
</gpx>
