<?xml version="1.0" encoding="UTF-8"?>
<gpx version="1.1" creator="HBGM 26 mattor"
 xmlns="http://www.topografix.com/GPX/1/1">
  <metadata>
    <name>HBGM 26 Söder — Hans &amp; Erik</name>
    <desc>Kortaste körrutten mellan tidtagningspunkterna. Igång-tid står på varje stopp.</desc>
  </metadata>
  <wpt lat="56.047556" lon="12.689811">
    <name>1/5 Start</name>
    <cmt>SÄTT UPP: Startmatta marathon | Igång 08:15 | Samma som tidigare år, vid dagvattenbrunnen</cmt>
    <desc>SÄTT UPP: Startmatta marathon | Igång 08:15 | Samma som tidigare år, vid dagvattenbrunnen</desc>
    <sym>Flag</sym>
    <type>Tidtagningspunkt</type>
  </wpt>
  <wpt lat="56.028321" lon="12.731747">
    <name>2/5 15 km hel</name>
    <cmt>SÄTT UPP: Tidtagningsmatta 15 km marathon | Igång 07:45 | På gång- och cykelbanan</cmt>
    <desc>SÄTT UPP: Tidtagningsmatta 15 km marathon | Igång 07:45 | På gång- och cykelbanan</desc>
    <sym>Flag</sym>
    <type>Tidtagningspunkt</type>
  </wpt>
  <wpt lat="56.011402" lon="12.753956">
    <name>3/5 Vxl 1 hel</name>
    <cmt>SÄTT UPP: Växlingsmatta stafett 42 km, växling 1 | Igång 07:15 | Där asfaltsvägen blir grusväg</cmt>
    <desc>SÄTT UPP: Växlingsmatta stafett 42 km, växling 1 | Igång 07:15 | Där asfaltsvägen blir grusväg</desc>
    <sym>Flag</sym>
    <type>Tidtagningspunkt</type>
  </wpt>
  <wpt lat="56.007523" lon="12.753341">
    <name>4/5 10 km hel</name>
    <cmt>SÄTT UPP: Tidtagningsmatta 10 km marathon | Igång 06:45</cmt>
    <desc>SÄTT UPP: Tidtagningsmatta 10 km marathon | Igång 06:45</desc>
    <sym>Flag</sym>
    <type>Tidtagningspunkt</type>
  </wpt>
  <wpt lat="56.008511" lon="12.723066">
    <name>5/5 5 km hel</name>
    <cmt>SÄTT UPP: Tidtagningsmatta 5 km marathon | Igång 06:15</cmt>
    <desc>SÄTT UPP: Tidtagningsmatta 5 km marathon | Igång 06:15</desc>
    <sym>Flag</sym>
    <type>Tidtagningspunkt</type>
  </wpt>
  <rte>
    <name>HBGM 26 Söder — Hans &amp; Erik</name>
    <rtept lat="56.047556" lon="12.689811">
      <name>1/5 Start</name>
    </rtept>
    <rtept lat="56.028321" lon="12.731747">
      <name>2/5 15 km hel</name>
    </rtept>
    <rtept lat="56.011402" lon="12.753956">
      <name>3/5 Vxl 1 hel</name>
    </rtept>
    <rtept lat="56.007523" lon="12.753341">
      <name>4/5 10 km hel</name>
    </rtept>
    <rtept lat="56.008511" lon="12.723066">
      <name>5/5 5 km hel</name>
    </rtept>
  </rte>
  <trk>
    <name>HBGM 26 Söder — Hans &amp; Erik körväg</name>
    <trkseg>
      <trkpt lat="56.047556" lon="12.689811"/>
      <trkpt lat="56.047549" lon="12.689781"/>
      <trkpt lat="56.047459" lon="12.689848"/>
      <trkpt lat="56.046753" lon="12.690337"/>
      <trkpt lat="56.046638" lon="12.690416"/>
      <trkpt lat="56.045903" lon="12.690918"/>
      <trkpt lat="56.045872" lon="12.690939"/>
      <trkpt lat="56.045618" lon="12.691107"/>
      <trkpt lat="56.045599" lon="12.691135"/>
      <trkpt lat="56.045603" lon="12.691181"/>
      <trkpt lat="56.045721" lon="12.691718"/>
      <trkpt lat="56.045827" lon="12.692199"/>
      <trkpt lat="56.045862" lon="12.692359"/>
      <trkpt lat="56.045901" lon="12.692526"/>
      <trkpt lat="56.045916" lon="12.692588"/>
      <trkpt lat="56.045993" lon="12.692894"/>
      <trkpt lat="56.045879" lon="12.693024"/>
      <trkpt lat="56.045871" lon="12.693034"/>
      <trkpt lat="56.045396" lon="12.693596"/>
      <trkpt lat="56.045079" lon="12.693955"/>
      <trkpt lat="56.044978" lon="12.694069"/>
      <trkpt lat="56.044876" lon="12.694180"/>
      <trkpt lat="56.044647" lon="12.694434"/>
      <trkpt lat="56.044373" lon="12.694720"/>
      <trkpt lat="56.043978" lon="12.695148"/>
      <trkpt lat="56.043894" lon="12.695238"/>
      <trkpt lat="56.043852" lon="12.695281"/>
      <trkpt lat="56.043764" lon="12.695375"/>
      <trkpt lat="56.043677" lon="12.695467"/>
      <trkpt lat="56.043002" lon="12.696180"/>
      <trkpt lat="56.042967" lon="12.696216"/>
      <trkpt lat="56.042812" lon="12.696389"/>
      <trkpt lat="56.042674" lon="12.696513"/>
      <trkpt lat="56.042598" lon="12.696586"/>
      <trkpt lat="56.042539" lon="12.696643"/>
      <trkpt lat="56.042517" lon="12.696664"/>
      <trkpt lat="56.042473" lon="12.696706"/>
      <trkpt lat="56.042008" lon="12.697145"/>
      <trkpt lat="56.041553" lon="12.697577"/>
      <trkpt lat="56.041486" lon="12.697639"/>
      <trkpt lat="56.041347" lon="12.697773"/>
      <trkpt lat="56.041148" lon="12.697944"/>
      <trkpt lat="56.040897" lon="12.698124"/>
      <trkpt lat="56.040769" lon="12.698215"/>
      <trkpt lat="56.040569" lon="12.698350"/>
      <trkpt lat="56.039899" lon="12.698898"/>
      <trkpt lat="56.039273" lon="12.699477"/>
      <trkpt lat="56.039133" lon="12.699641"/>
      <trkpt lat="56.038624" lon="12.700132"/>
      <trkpt lat="56.037829" lon="12.700882"/>
      <trkpt lat="56.037489" lon="12.701214"/>
      <trkpt lat="56.036877" lon="12.701838"/>
      <trkpt lat="56.036710" lon="12.702013"/>
      <trkpt lat="56.036312" lon="12.702441"/>
      <trkpt lat="56.036144" lon="12.702638"/>
      <trkpt lat="56.035992" lon="12.702827"/>
      <trkpt lat="56.035913" lon="12.702936"/>
      <trkpt lat="56.035817" lon="12.703079"/>
      <trkpt lat="56.035684" lon="12.703321"/>
      <trkpt lat="56.035601" lon="12.703502"/>
      <trkpt lat="56.035535" lon="12.703664"/>
      <trkpt lat="56.035478" lon="12.703819"/>
      <trkpt lat="56.035425" lon="12.703990"/>
      <trkpt lat="56.035389" lon="12.704153"/>
      <trkpt lat="56.035348" lon="12.704345"/>
      <trkpt lat="56.035331" lon="12.704446"/>
      <trkpt lat="56.035314" lon="12.704576"/>
      <trkpt lat="56.035290" lon="12.704762"/>
      <trkpt lat="56.035265" lon="12.705025"/>
      <trkpt lat="56.035253" lon="12.705218"/>
      <trkpt lat="56.035239" lon="12.705613"/>
      <trkpt lat="56.035230" lon="12.705914"/>
      <trkpt lat="56.035225" lon="12.706261"/>
      <trkpt lat="56.035219" lon="12.706684"/>
      <trkpt lat="56.035209" lon="12.707172"/>
      <trkpt lat="56.035216" lon="12.707735"/>
      <trkpt lat="56.035238" lon="12.709100"/>
      <trkpt lat="56.035275" lon="12.711873"/>
      <trkpt lat="56.035289" lon="12.712690"/>
      <trkpt lat="56.035290" lon="12.712810"/>
      <trkpt lat="56.035287" lon="12.712934"/>
      <trkpt lat="56.035273" lon="12.713057"/>
      <trkpt lat="56.035245" lon="12.713157"/>
      <trkpt lat="56.035184" lon="12.713331"/>
      <trkpt lat="56.035135" lon="12.713403"/>
      <trkpt lat="56.035104" lon="12.713470"/>
      <trkpt lat="56.035071" lon="12.713564"/>
      <trkpt lat="56.035042" lon="12.713667"/>
      <trkpt lat="56.035017" lon="12.713815"/>
      <trkpt lat="56.035013" lon="12.713953"/>
      <trkpt lat="56.035021" lon="12.714075"/>
      <trkpt lat="56.035016" lon="12.714260"/>
      <trkpt lat="56.034994" lon="12.714434"/>
      <trkpt lat="56.034957" lon="12.714627"/>
      <trkpt lat="56.034904" lon="12.714787"/>
      <trkpt lat="56.034853" lon="12.714902"/>
      <trkpt lat="56.034790" lon="12.715004"/>
      <trkpt lat="56.034715" lon="12.715098"/>
      <trkpt lat="56.034592" lon="12.715197"/>
      <trkpt lat="56.034244" lon="12.715453"/>
      <trkpt lat="56.033930" lon="12.715697"/>
      <trkpt lat="56.033490" lon="12.716066"/>
      <trkpt lat="56.032255" lon="12.717100"/>
      <trkpt lat="56.031941" lon="12.717363"/>
      <trkpt lat="56.031642" lon="12.717474"/>
      <trkpt lat="56.031312" lon="12.717648"/>
      <trkpt lat="56.031233" lon="12.717686"/>
      <trkpt lat="56.030962" lon="12.717825"/>
      <trkpt lat="56.030705" lon="12.717977"/>
      <trkpt lat="56.030553" lon="12.718086"/>
      <trkpt lat="56.030393" lon="12.718228"/>
      <trkpt lat="56.030197" lon="12.718450"/>
      <trkpt lat="56.030095" lon="12.718606"/>
      <trkpt lat="56.029999" lon="12.718787"/>
      <trkpt lat="56.029912" lon="12.718981"/>
      <trkpt lat="56.029871" lon="12.719100"/>
      <trkpt lat="56.029829" lon="12.719234"/>
      <trkpt lat="56.029790" lon="12.719389"/>
      <trkpt lat="56.029755" lon="12.719540"/>
      <trkpt lat="56.029713" lon="12.719760"/>
      <trkpt lat="56.029691" lon="12.719899"/>
      <trkpt lat="56.029669" lon="12.720057"/>
      <trkpt lat="56.029646" lon="12.720270"/>
      <trkpt lat="56.029626" lon="12.720514"/>
      <trkpt lat="56.029611" lon="12.720714"/>
      <trkpt lat="56.029603" lon="12.720866"/>
      <trkpt lat="56.029598" lon="12.720962"/>
      <trkpt lat="56.029587" lon="12.721280"/>
      <trkpt lat="56.029579" lon="12.721756"/>
      <trkpt lat="56.029584" lon="12.721977"/>
      <trkpt lat="56.029589" lon="12.722246"/>
      <trkpt lat="56.029608" lon="12.722638"/>
      <trkpt lat="56.029647" lon="12.723074"/>
      <trkpt lat="56.029681" lon="12.723394"/>
      <trkpt lat="56.029741" lon="12.723793"/>
      <trkpt lat="56.029787" lon="12.724099"/>
      <trkpt lat="56.029824" lon="12.724339"/>
      <trkpt lat="56.029915" lon="12.724958"/>
      <trkpt lat="56.029991" lon="12.725456"/>
      <trkpt lat="56.030163" lon="12.726627"/>
      <trkpt lat="56.030197" lon="12.726860"/>
      <trkpt lat="56.030311" lon="12.727620"/>
      <trkpt lat="56.030396" lon="12.727842"/>
      <trkpt lat="56.030408" lon="12.727914"/>
      <trkpt lat="56.030338" lon="12.727964"/>
      <trkpt lat="56.030283" lon="12.728031"/>
      <trkpt lat="56.030216" lon="12.728146"/>
      <trkpt lat="56.030171" lon="12.728298"/>
      <trkpt lat="56.030119" lon="12.728541"/>
      <trkpt lat="56.030075" lon="12.728693"/>
      <trkpt lat="56.030011" lon="12.728853"/>
      <trkpt lat="56.029935" lon="12.728994"/>
      <trkpt lat="56.029921" lon="12.729017"/>
      <trkpt lat="56.029850" lon="12.729131"/>
      <trkpt lat="56.029826" lon="12.729167"/>
      <trkpt lat="56.029782" lon="12.729230"/>
      <trkpt lat="56.029763" lon="12.729255"/>
      <trkpt lat="56.029570" lon="12.729537"/>
      <trkpt lat="56.029524" lon="12.729604"/>
      <trkpt lat="56.029379" lon="12.729834"/>
      <trkpt lat="56.029330" lon="12.729961"/>
      <trkpt lat="56.029256" lon="12.730161"/>
      <trkpt lat="56.029224" lon="12.730242"/>
      <trkpt lat="56.029206" lon="12.730288"/>
      <trkpt lat="56.029108" lon="12.730538"/>
      <trkpt lat="56.029072" lon="12.730622"/>
      <trkpt lat="56.028964" lon="12.730872"/>
      <trkpt lat="56.028847" lon="12.731066"/>
      <trkpt lat="56.028820" lon="12.731112"/>
      <trkpt lat="56.028708" lon="12.731256"/>
      <trkpt lat="56.028618" lon="12.731349"/>
      <trkpt lat="56.028540" lon="12.731420"/>
      <trkpt lat="56.028518" lon="12.731441"/>
      <trkpt lat="56.028415" lon="12.731507"/>
      <trkpt lat="56.028325" lon="12.731586"/>
      <trkpt lat="56.028287" lon="12.731619"/>
      <trkpt lat="56.028321" lon="12.731747"/>
      <trkpt lat="56.028287" lon="12.731619"/>
      <trkpt lat="56.028222" lon="12.731675"/>
      <trkpt lat="56.028146" lon="12.731755"/>
      <trkpt lat="56.028101" lon="12.731818"/>
      <trkpt lat="56.028053" lon="12.731883"/>
      <trkpt lat="56.028029" lon="12.731960"/>
      <trkpt lat="56.027996" lon="12.732088"/>
      <trkpt lat="56.027971" lon="12.732194"/>
      <trkpt lat="56.027949" lon="12.732322"/>
      <trkpt lat="56.027948" lon="12.732486"/>
      <trkpt lat="56.027947" lon="12.732557"/>
      <trkpt lat="56.027936" lon="12.732783"/>
      <trkpt lat="56.027926" lon="12.732940"/>
      <trkpt lat="56.027914" lon="12.733020"/>
      <trkpt lat="56.027898" lon="12.733101"/>
      <trkpt lat="56.027882" lon="12.733179"/>
      <trkpt lat="56.027866" lon="12.733228"/>
      <trkpt lat="56.027831" lon="12.733329"/>
      <trkpt lat="56.027776" lon="12.733451"/>
      <trkpt lat="56.027582" lon="12.733763"/>
      <trkpt lat="56.027329" lon="12.734150"/>
      <trkpt lat="56.027134" lon="12.734447"/>
      <trkpt lat="56.027002" lon="12.734655"/>
      <trkpt lat="56.026765" lon="12.735020"/>
      <trkpt lat="56.026583" lon="12.735298"/>
      <trkpt lat="56.026537" lon="12.735326"/>
      <trkpt lat="56.026481" lon="12.735345"/>
      <trkpt lat="56.026424" lon="12.735350"/>
      <trkpt lat="56.026365" lon="12.735351"/>
      <trkpt lat="56.026330" lon="12.735346"/>
      <trkpt lat="56.026282" lon="12.735339"/>
      <trkpt lat="56.026238" lon="12.735330"/>
      <trkpt lat="56.026186" lon="12.735316"/>
      <trkpt lat="56.026087" lon="12.735292"/>
      <trkpt lat="56.026038" lon="12.735264"/>
      <trkpt lat="56.025950" lon="12.735153"/>
      <trkpt lat="56.025908" lon="12.735096"/>
      <trkpt lat="56.025882" lon="12.735057"/>
      <trkpt lat="56.025851" lon="12.735005"/>
      <trkpt lat="56.025819" lon="12.734934"/>
      <trkpt lat="56.025803" lon="12.734874"/>
      <trkpt lat="56.025781" lon="12.734775"/>
      <trkpt lat="56.025737" lon="12.734513"/>
      <trkpt lat="56.025661" lon="12.734087"/>
      <trkpt lat="56.025609" lon="12.733816"/>
      <trkpt lat="56.025533" lon="12.733454"/>
      <trkpt lat="56.025449" lon="12.733096"/>
      <trkpt lat="56.025362" lon="12.732751"/>
      <trkpt lat="56.025267" lon="12.732396"/>
      <trkpt lat="56.025162" lon="12.732036"/>
      <trkpt lat="56.025095" lon="12.731817"/>
      <trkpt lat="56.024994" lon="12.731513"/>
      <trkpt lat="56.024892" lon="12.731215"/>
      <trkpt lat="56.024784" lon="12.730927"/>
      <trkpt lat="56.024697" lon="12.730701"/>
      <trkpt lat="56.024573" lon="12.730408"/>
      <trkpt lat="56.024472" lon="12.730191"/>
      <trkpt lat="56.024370" lon="12.729991"/>
      <trkpt lat="56.024358" lon="12.729961"/>
      <trkpt lat="56.024343" lon="12.729921"/>
      <trkpt lat="56.024332" lon="12.729880"/>
      <trkpt lat="56.024323" lon="12.729838"/>
      <trkpt lat="56.024319" lon="12.729807"/>
      <trkpt lat="56.024315" lon="12.729780"/>
      <trkpt lat="56.024311" lon="12.729715"/>
      <trkpt lat="56.024311" lon="12.729635"/>
      <trkpt lat="56.024311" lon="12.729567"/>
      <trkpt lat="56.024339" lon="12.729453"/>
      <trkpt lat="56.024343" lon="12.729387"/>
      <trkpt lat="56.024346" lon="12.729310"/>
      <trkpt lat="56.024343" lon="12.729239"/>
      <trkpt lat="56.024336" lon="12.729158"/>
      <trkpt lat="56.024324" lon="12.729096"/>
      <trkpt lat="56.024308" lon="12.729030"/>
      <trkpt lat="56.024289" lon="12.728962"/>
      <trkpt lat="56.024269" lon="12.728906"/>
      <trkpt lat="56.024237" lon="12.728831"/>
      <trkpt lat="56.024204" lon="12.728767"/>
      <trkpt lat="56.024172" lon="12.728709"/>
      <trkpt lat="56.024130" lon="12.728651"/>
      <trkpt lat="56.024078" lon="12.728589"/>
      <trkpt lat="56.024023" lon="12.728541"/>
      <trkpt lat="56.023958" lon="12.728511"/>
      <trkpt lat="56.023878" lon="12.728494"/>
      <trkpt lat="56.023839" lon="12.728507"/>
      <trkpt lat="56.023789" lon="12.728525"/>
      <trkpt lat="56.023757" lon="12.728549"/>
      <trkpt lat="56.023709" lon="12.728599"/>
      <trkpt lat="56.023668" lon="12.728662"/>
      <trkpt lat="56.023645" lon="12.728704"/>
      <trkpt lat="56.023620" lon="12.728768"/>
      <trkpt lat="56.023596" lon="12.728850"/>
      <trkpt lat="56.023575" lon="12.728941"/>
      <trkpt lat="56.023507" lon="12.729053"/>
      <trkpt lat="56.023443" lon="12.729157"/>
      <trkpt lat="56.023321" lon="12.729357"/>
      <trkpt lat="56.021972" lon="12.731365"/>
      <trkpt lat="56.021595" lon="12.732035"/>
      <trkpt lat="56.019668" lon="12.734209"/>
      <trkpt lat="56.019027" lon="12.734934"/>
      <trkpt lat="56.018601" lon="12.735517"/>
      <trkpt lat="56.018269" lon="12.736006"/>
      <trkpt lat="56.017889" lon="12.736644"/>
      <trkpt lat="56.017514" lon="12.737417"/>
      <trkpt lat="56.017203" lon="12.738140"/>
      <trkpt lat="56.016852" lon="12.739116"/>
      <trkpt lat="56.016585" lon="12.740091"/>
      <trkpt lat="56.016461" lon="12.740620"/>
      <trkpt lat="56.016393" lon="12.740966"/>
      <trkpt lat="56.016304" lon="12.741435"/>
      <trkpt lat="56.016241" lon="12.741851"/>
      <trkpt lat="56.016182" lon="12.742285"/>
      <trkpt lat="56.016125" lon="12.742789"/>
      <trkpt lat="56.016093" lon="12.743146"/>
      <trkpt lat="56.016075" lon="12.743425"/>
      <trkpt lat="56.016051" lon="12.743819"/>
      <trkpt lat="56.016034" lon="12.744173"/>
      <trkpt lat="56.016028" lon="12.744569"/>
      <trkpt lat="56.016026" lon="12.744959"/>
      <trkpt lat="56.016033" lon="12.745487"/>
      <trkpt lat="56.016050" lon="12.745913"/>
      <trkpt lat="56.016074" lon="12.746294"/>
      <trkpt lat="56.016102" lon="12.746654"/>
      <trkpt lat="56.016136" lon="12.747029"/>
      <trkpt lat="56.016178" lon="12.747420"/>
      <trkpt lat="56.016243" lon="12.747910"/>
      <trkpt lat="56.016402" lon="12.749008"/>
      <trkpt lat="56.016616" lon="12.750313"/>
      <trkpt lat="56.016806" lon="12.751455"/>
      <trkpt lat="56.017024" lon="12.752825"/>
      <trkpt lat="56.017185" lon="12.753935"/>
      <trkpt lat="56.017263" lon="12.754942"/>
      <trkpt lat="56.017290" lon="12.755338"/>
      <trkpt lat="56.017302" lon="12.755746"/>
      <trkpt lat="56.017302" lon="12.756125"/>
      <trkpt lat="56.017295" lon="12.756321"/>
      <trkpt lat="56.017282" lon="12.756484"/>
      <trkpt lat="56.017263" lon="12.756621"/>
      <trkpt lat="56.017221" lon="12.756817"/>
      <trkpt lat="56.017193" lon="12.756904"/>
      <trkpt lat="56.017162" lon="12.756982"/>
      <trkpt lat="56.017102" lon="12.757114"/>
      <trkpt lat="56.017063" lon="12.757176"/>
      <trkpt lat="56.017019" lon="12.757235"/>
      <trkpt lat="56.016919" lon="12.757337"/>
      <trkpt lat="56.016831" lon="12.757402"/>
      <trkpt lat="56.016774" lon="12.757436"/>
      <trkpt lat="56.016717" lon="12.757460"/>
      <trkpt lat="56.016687" lon="12.757470"/>
      <trkpt lat="56.016657" lon="12.757476"/>
      <trkpt lat="56.016628" lon="12.757477"/>
      <trkpt lat="56.016594" lon="12.757473"/>
      <trkpt lat="56.016561" lon="12.757467"/>
      <trkpt lat="56.016538" lon="12.757454"/>
      <trkpt lat="56.016508" lon="12.757413"/>
      <trkpt lat="56.016474" lon="12.757386"/>
      <trkpt lat="56.016433" lon="12.757372"/>
      <trkpt lat="56.016392" lon="12.757377"/>
      <trkpt lat="56.016352" lon="12.757401"/>
      <trkpt lat="56.016317" lon="12.757441"/>
      <trkpt lat="56.016285" lon="12.757504"/>
      <trkpt lat="56.016265" lon="12.757580"/>
      <trkpt lat="56.016235" lon="12.757610"/>
      <trkpt lat="56.016198" lon="12.757637"/>
      <trkpt lat="56.016177" lon="12.757646"/>
      <trkpt lat="56.016135" lon="12.757654"/>
      <trkpt lat="56.016100" lon="12.757657"/>
      <trkpt lat="56.016064" lon="12.757648"/>
      <trkpt lat="56.016028" lon="12.757634"/>
      <trkpt lat="56.016020" lon="12.757628"/>
      <trkpt lat="56.016004" lon="12.757615"/>
      <trkpt lat="56.015973" lon="12.757579"/>
      <trkpt lat="56.015942" lon="12.757477"/>
      <trkpt lat="56.015921" lon="12.757369"/>
      <trkpt lat="56.015906" lon="12.757260"/>
      <trkpt lat="56.015874" lon="12.756851"/>
      <trkpt lat="56.015858" lon="12.756691"/>
      <trkpt lat="56.015837" lon="12.756538"/>
      <trkpt lat="56.015820" lon="12.756442"/>
      <trkpt lat="56.015796" lon="12.756327"/>
      <trkpt lat="56.015757" lon="12.756189"/>
      <trkpt lat="56.015713" lon="12.756054"/>
      <trkpt lat="56.015669" lon="12.755962"/>
      <trkpt lat="56.015624" lon="12.755873"/>
      <trkpt lat="56.015581" lon="12.755801"/>
      <trkpt lat="56.015520" lon="12.755711"/>
      <trkpt lat="56.015438" lon="12.755611"/>
      <trkpt lat="56.015354" lon="12.755538"/>
      <trkpt lat="56.015259" lon="12.755483"/>
      <trkpt lat="56.015164" lon="12.755440"/>
      <trkpt lat="56.015052" lon="12.755405"/>
      <trkpt lat="56.014640" lon="12.755289"/>
      <trkpt lat="56.014220" lon="12.755171"/>
      <trkpt lat="56.013995" lon="12.755125"/>
      <trkpt lat="56.013716" lon="12.755087"/>
      <trkpt lat="56.013156" lon="12.755012"/>
      <trkpt lat="56.013115" lon="12.755019"/>
      <trkpt lat="56.013065" lon="12.755039"/>
      <trkpt lat="56.013025" lon="12.755060"/>
      <trkpt lat="56.012981" lon="12.755100"/>
      <trkpt lat="56.012932" lon="12.755159"/>
      <trkpt lat="56.012878" lon="12.755042"/>
      <trkpt lat="56.012837" lon="12.754978"/>
      <trkpt lat="56.012783" lon="12.754933"/>
      <trkpt lat="56.012716" lon="12.754910"/>
      <trkpt lat="56.012645" lon="12.754885"/>
      <trkpt lat="56.012301" lon="12.754833"/>
      <trkpt lat="56.012308" lon="12.754690"/>
      <trkpt lat="56.012308" lon="12.754690"/>
      <trkpt lat="56.012308" lon="12.754690"/>
      <trkpt lat="56.011402" lon="12.753956"/>
      <trkpt lat="56.012308" lon="12.754690"/>
      <trkpt lat="56.012301" lon="12.754833"/>
      <trkpt lat="56.012645" lon="12.754885"/>
      <trkpt lat="56.012716" lon="12.754910"/>
      <trkpt lat="56.012783" lon="12.754933"/>
      <trkpt lat="56.012837" lon="12.754978"/>
      <trkpt lat="56.012878" lon="12.755042"/>
      <trkpt lat="56.012932" lon="12.755159"/>
      <trkpt lat="56.012902" lon="12.755207"/>
      <trkpt lat="56.012872" lon="12.755274"/>
      <trkpt lat="56.012848" lon="12.755355"/>
      <trkpt lat="56.012831" lon="12.755435"/>
      <trkpt lat="56.012815" lon="12.755526"/>
      <trkpt lat="56.012805" lon="12.755611"/>
      <trkpt lat="56.012782" lon="12.756080"/>
      <trkpt lat="56.012760" lon="12.756612"/>
      <trkpt lat="56.012704" lon="12.757943"/>
      <trkpt lat="56.012649" lon="12.759091"/>
      <trkpt lat="56.012593" lon="12.760282"/>
      <trkpt lat="56.012586" lon="12.760425"/>
      <trkpt lat="56.012565" lon="12.760867"/>
      <trkpt lat="56.012552" lon="12.761160"/>
      <trkpt lat="56.012549" lon="12.761190"/>
      <trkpt lat="56.012542" lon="12.761266"/>
      <trkpt lat="56.012529" lon="12.761343"/>
      <trkpt lat="56.012508" lon="12.761413"/>
      <trkpt lat="56.012477" lon="12.761491"/>
      <trkpt lat="56.012436" lon="12.761566"/>
      <trkpt lat="56.012407" lon="12.761601"/>
      <trkpt lat="56.012367" lon="12.761629"/>
      <trkpt lat="56.012312" lon="12.761659"/>
      <trkpt lat="56.012245" lon="12.761675"/>
      <trkpt lat="56.012170" lon="12.761666"/>
      <trkpt lat="56.011871" lon="12.761592"/>
      <trkpt lat="56.011781" lon="12.761569"/>
      <trkpt lat="56.011088" lon="12.761369"/>
      <trkpt lat="56.010846" lon="12.761312"/>
      <trkpt lat="56.010781" lon="12.761303"/>
      <trkpt lat="56.010644" lon="12.761284"/>
      <trkpt lat="56.010511" lon="12.761276"/>
      <trkpt lat="56.010340" lon="12.761276"/>
      <trkpt lat="56.010229" lon="12.761284"/>
      <trkpt lat="56.010149" lon="12.761290"/>
      <trkpt lat="56.010116" lon="12.761911"/>
      <trkpt lat="56.010106" lon="12.761990"/>
      <trkpt lat="56.010089" lon="12.762061"/>
      <trkpt lat="56.010048" lon="12.762153"/>
      <trkpt lat="56.009981" lon="12.762259"/>
      <trkpt lat="56.009932" lon="12.762311"/>
      <trkpt lat="56.009689" lon="12.762537"/>
      <trkpt lat="56.009633" lon="12.762585"/>
      <trkpt lat="56.009571" lon="12.762634"/>
      <trkpt lat="56.009509" lon="12.762674"/>
      <trkpt lat="56.009428" lon="12.762709"/>
      <trkpt lat="56.009330" lon="12.762726"/>
      <trkpt lat="56.009221" lon="12.762725"/>
      <trkpt lat="56.009173" lon="12.762720"/>
      <trkpt lat="56.008632" lon="12.762670"/>
      <trkpt lat="56.008402" lon="12.762659"/>
      <trkpt lat="56.008125" lon="12.762675"/>
      <trkpt lat="56.007940" lon="12.762656"/>
      <trkpt lat="56.006747" lon="12.762581"/>
      <trkpt lat="56.006520" lon="12.762571"/>
      <trkpt lat="56.006092" lon="12.762538"/>
      <trkpt lat="56.005773" lon="12.762487"/>
      <trkpt lat="56.005562" lon="12.762440"/>
      <trkpt lat="56.005230" lon="12.762338"/>
      <trkpt lat="56.004853" lon="12.762191"/>
      <trkpt lat="56.004900" lon="12.761639"/>
      <trkpt lat="56.004905" lon="12.761526"/>
      <trkpt lat="56.004904" lon="12.761349"/>
      <trkpt lat="56.004893" lon="12.761066"/>
      <trkpt lat="56.004867" lon="12.760591"/>
      <trkpt lat="56.004860" lon="12.760375"/>
      <trkpt lat="56.004851" lon="12.760123"/>
      <trkpt lat="56.004842" lon="12.759843"/>
      <trkpt lat="56.004840" lon="12.759677"/>
      <trkpt lat="56.004839" lon="12.759564"/>
      <trkpt lat="56.004843" lon="12.759331"/>
      <trkpt lat="56.004864" lon="12.758712"/>
      <trkpt lat="56.004934" lon="12.757825"/>
      <trkpt lat="56.004947" lon="12.757534"/>
      <trkpt lat="56.004957" lon="12.757311"/>
      <trkpt lat="56.004993" lon="12.756664"/>
      <trkpt lat="56.005018" lon="12.756397"/>
      <trkpt lat="56.005046" lon="12.756146"/>
      <trkpt lat="56.005092" lon="12.755808"/>
      <trkpt lat="56.005139" lon="12.755529"/>
      <trkpt lat="56.005253" lon="12.755009"/>
      <trkpt lat="56.005275" lon="12.754908"/>
      <trkpt lat="56.005344" lon="12.754593"/>
      <trkpt lat="56.005355" lon="12.754514"/>
      <trkpt lat="56.005356" lon="12.754453"/>
      <trkpt lat="56.005354" lon="12.754402"/>
      <trkpt lat="56.005347" lon="12.754343"/>
      <trkpt lat="56.005337" lon="12.754293"/>
      <trkpt lat="56.005321" lon="12.754249"/>
      <trkpt lat="56.005302" lon="12.754213"/>
      <trkpt lat="56.005269" lon="12.754164"/>
      <trkpt lat="56.005033" lon="12.753936"/>
      <trkpt lat="56.005456" lon="12.752857"/>
      <trkpt lat="56.005803" lon="12.751979"/>
      <trkpt lat="56.006475" lon="12.752498"/>
      <trkpt lat="56.007201" lon="12.753061"/>
      <trkpt lat="56.007529" lon="12.753318"/>
      <trkpt lat="56.007523" lon="12.753341"/>
      <trkpt lat="56.007529" lon="12.753318"/>
      <trkpt lat="56.007201" lon="12.753061"/>
      <trkpt lat="56.006475" lon="12.752498"/>
      <trkpt lat="56.005803" lon="12.751979"/>
      <trkpt lat="56.005456" lon="12.752857"/>
      <trkpt lat="56.005033" lon="12.753936"/>
      <trkpt lat="56.004973" lon="12.753882"/>
      <trkpt lat="56.004415" lon="12.753383"/>
      <trkpt lat="56.003963" lon="12.752977"/>
      <trkpt lat="56.003597" lon="12.752641"/>
      <trkpt lat="56.003472" lon="12.752525"/>
      <trkpt lat="56.003328" lon="12.752391"/>
      <trkpt lat="56.003153" lon="12.752232"/>
      <trkpt lat="56.003003" lon="12.752087"/>
      <trkpt lat="56.002891" lon="12.751985"/>
      <trkpt lat="56.002770" lon="12.751899"/>
      <trkpt lat="56.002576" lon="12.751775"/>
      <trkpt lat="56.002540" lon="12.751761"/>
      <trkpt lat="56.002384" lon="12.751717"/>
      <trkpt lat="56.002186" lon="12.751690"/>
      <trkpt lat="56.002017" lon="12.751698"/>
      <trkpt lat="56.001945" lon="12.751706"/>
      <trkpt lat="56.001871" lon="12.751723"/>
      <trkpt lat="56.001735" lon="12.751774"/>
      <trkpt lat="56.001607" lon="12.751831"/>
      <trkpt lat="56.001449" lon="12.751915"/>
      <trkpt lat="56.001297" lon="12.751990"/>
      <trkpt lat="56.001221" lon="12.751522"/>
      <trkpt lat="56.001151" lon="12.751004"/>
      <trkpt lat="56.001142" lon="12.750920"/>
      <trkpt lat="56.001078" lon="12.750339"/>
      <trkpt lat="56.001055" lon="12.750112"/>
      <trkpt lat="56.001028" lon="12.749854"/>
      <trkpt lat="56.001007" lon="12.749572"/>
      <trkpt lat="56.000997" lon="12.749384"/>
      <trkpt lat="56.000991" lon="12.749177"/>
      <trkpt lat="56.000988" lon="12.748811"/>
      <trkpt lat="56.001053" lon="12.748156"/>
      <trkpt lat="56.001120" lon="12.747473"/>
      <trkpt lat="56.001129" lon="12.747331"/>
      <trkpt lat="56.001139" lon="12.747196"/>
      <trkpt lat="56.001149" lon="12.747056"/>
      <trkpt lat="56.001158" lon="12.746721"/>
      <trkpt lat="56.001158" lon="12.746491"/>
      <trkpt lat="56.001145" lon="12.746190"/>
      <trkpt lat="56.001082" lon="12.745652"/>
      <trkpt lat="56.001052" lon="12.745386"/>
      <trkpt lat="56.001001" lon="12.745021"/>
      <trkpt lat="56.000948" lon="12.744727"/>
      <trkpt lat="56.000916" lon="12.744564"/>
      <trkpt lat="56.000830" lon="12.744183"/>
      <trkpt lat="56.000729" lon="12.743726"/>
      <trkpt lat="56.000624" lon="12.743375"/>
      <trkpt lat="56.000605" lon="12.743311"/>
      <trkpt lat="56.000536" lon="12.743174"/>
      <trkpt lat="56.000477" lon="12.743056"/>
      <trkpt lat="56.000357" lon="12.742860"/>
      <trkpt lat="56.000230" lon="12.742710"/>
      <trkpt lat="56.000081" lon="12.742560"/>
      <trkpt lat="56.000029" lon="12.742462"/>
      <trkpt lat="55.999996" lon="12.742376"/>
      <trkpt lat="55.999961" lon="12.742285"/>
      <trkpt lat="55.999944" lon="12.742240"/>
      <trkpt lat="55.999863" lon="12.741969"/>
      <trkpt lat="55.999847" lon="12.741917"/>
      <trkpt lat="55.999784" lon="12.741691"/>
      <trkpt lat="55.999668" lon="12.741306"/>
      <trkpt lat="55.999402" lon="12.740366"/>
      <trkpt lat="55.999388" lon="12.740259"/>
      <trkpt lat="55.999376" lon="12.740167"/>
      <trkpt lat="55.999141" lon="12.739552"/>
      <trkpt lat="55.998882" lon="12.738877"/>
      <trkpt lat="55.998552" lon="12.738014"/>
      <trkpt lat="55.998839" lon="12.737529"/>
      <trkpt lat="55.999211" lon="12.736764"/>
      <trkpt lat="55.999519" lon="12.736132"/>
      <trkpt lat="55.999722" lon="12.735769"/>
      <trkpt lat="56.000058" lon="12.735137"/>
      <trkpt lat="56.000262" lon="12.734748"/>
      <trkpt lat="56.000313" lon="12.734673"/>
      <trkpt lat="56.000891" lon="12.733898"/>
      <trkpt lat="56.001752" lon="12.732690"/>
      <trkpt lat="56.002709" lon="12.731348"/>
      <trkpt lat="56.003245" lon="12.730577"/>
      <trkpt lat="56.003343" lon="12.730435"/>
      <trkpt lat="56.003401" lon="12.730354"/>
      <trkpt lat="56.003744" lon="12.729871"/>
      <trkpt lat="56.004817" lon="12.728389"/>
      <trkpt lat="56.005377" lon="12.727614"/>
      <trkpt lat="56.005860" lon="12.726931"/>
      <trkpt lat="56.006023" lon="12.726703"/>
      <trkpt lat="56.006880" lon="12.725502"/>
      <trkpt lat="56.007174" lon="12.725106"/>
      <trkpt lat="56.008002" lon="12.723934"/>
      <trkpt lat="56.008555" lon="12.723167"/>
      <trkpt lat="56.008511" lon="12.723066"/>
    </trkseg>
  </trk>
</gpx>
