<?xml version="1.0" encoding="UTF-8"?>
<gpx version="1.1" creator="HBGM 26 mattor"
 xmlns="http://www.topografix.com/GPX/1/1">
  <metadata>
    <name>HBGM 26 Norr — Susanne &amp; Liam</name>
    <desc>Kortaste körrutten mellan tidtagningspunkterna. Igång-tid står på varje stopp.</desc>
  </metadata>
  <wpt lat="56.078353" lon="12.684230">
    <name>1/7 30 km hel</name>
    <cmt>SÄTT UPP: Tidtagningsmatta 30 km marathon | Igång 09:30 | Mellan de två små husen, några meter innan km 30. Precis innan vätskestationen på grusvägen</cmt>
    <desc>SÄTT UPP: Tidtagningsmatta 30 km marathon | Igång 09:30 | Mellan de två små husen, några meter innan km 30. Precis innan vätskestationen på grusvägen</desc>
    <sym>Flag</sym>
    <type>Tidtagningspunkt</type>
  </wpt>
  <wpt lat="56.071272" lon="12.692678">
    <name>2/7 10 km halv</name>
    <cmt>SÄTT UPP: Tidtagningsmatta 10 km halvmaraton | Igång 06:30</cmt>
    <desc>SÄTT UPP: Tidtagningsmatta 10 km halvmaraton | Igång 06:30</desc>
    <sym>Flag</sym>
    <type>Tidtagningspunkt</type>
  </wpt>
  <wpt lat="56.073385" lon="12.670776">
    <name>3/7 Vxl 3 hel</name>
    <cmt>SÄTT UPP: Växlingsmatta stafett 42 km växling 3 / 21 km växling 2 | Igång 09:00 | Där grusparkeringen börjar</cmt>
    <desc>SÄTT UPP: Växlingsmatta stafett 42 km växling 3 / 21 km växling 2 | Igång 09:00 | Där grusparkeringen börjar</desc>
    <sym>Flag</sym>
    <type>Tidtagningspunkt</type>
  </wpt>
  <wpt lat="56.063445" lon="12.678469">
    <name>4/7 20 km halv</name>
    <cmt>SÄTT UPP: Tidtagningsmatta 20 km halvmaraton | Igång 08:30</cmt>
    <desc>SÄTT UPP: Tidtagningsmatta 20 km halvmaraton | Igång 08:30</desc>
    <sym>Flag</sym>
    <type>Tidtagningspunkt</type>
  </wpt>
  <wpt lat="56.082616" lon="12.662936">
    <name>5/7 Vxl 3 halv</name>
    <cmt>SÄTT UPP: Växlingsmatta stafett 21 km, växling 3 | Igång 07:30 | Där grusvägen möter gräset. 2 m från vallen som vätter mot cykelbanan</cmt>
    <desc>SÄTT UPP: Växlingsmatta stafett 21 km, växling 3 | Igång 07:30 | Där grusvägen möter gräset. 2 m från vallen som vätter mot cykelbanan</desc>
    <sym>Flag</sym>
    <type>Tidtagningspunkt</type>
  </wpt>
  <wpt lat="56.089150" lon="12.665898">
    <name>6/7 35 km hel</name>
    <cmt>SÄTT UPP: Tidtagningsmatta 35 km marathon | Igång 10:00 | På cykelbanan innan tunneln</cmt>
    <desc>SÄTT UPP: Tidtagningsmatta 35 km marathon | Igång 10:00 | På cykelbanan innan tunneln</desc>
    <sym>Flag</sym>
    <type>Tidtagningspunkt</type>
  </wpt>
  <wpt lat="56.095366" lon="12.659196">
    <name>7/7 15 km halv</name>
    <cmt>SÄTT UPP: Tidtagningsmatta 15 km halvmaraton | Igång 08:00</cmt>
    <desc>SÄTT UPP: Tidtagningsmatta 15 km halvmaraton | Igång 08:00</desc>
    <sym>Flag</sym>
    <type>Tidtagningspunkt</type>
  </wpt>
  <rte>
    <name>HBGM 26 Norr — Susanne &amp; Liam</name>
    <rtept lat="56.078353" lon="12.684230">
      <name>1/7 30 km hel</name>
    </rtept>
    <rtept lat="56.071272" lon="12.692678">
      <name>2/7 10 km halv</name>
    </rtept>
    <rtept lat="56.073385" lon="12.670776">
      <name>3/7 Vxl 3 hel</name>
    </rtept>
    <rtept lat="56.063445" lon="12.678469">
      <name>4/7 20 km halv</name>
    </rtept>
    <rtept lat="56.082616" lon="12.662936">
      <name>5/7 Vxl 3 halv</name>
    </rtept>
    <rtept lat="56.089150" lon="12.665898">
      <name>6/7 35 km hel</name>
    </rtept>
    <rtept lat="56.095366" lon="12.659196">
      <name>7/7 15 km halv</name>
    </rtept>
  </rte>
  <trk>
    <name>HBGM 26 Norr — Susanne &amp; Liam körväg</name>
    <trkseg>
      <trkpt lat="56.078353" lon="12.684230"/>
      <trkpt lat="56.078354" lon="12.684222"/>
      <trkpt lat="56.078226" lon="12.684154"/>
      <trkpt lat="56.076930" lon="12.691612"/>
      <trkpt lat="56.076854" lon="12.692098"/>
      <trkpt lat="56.076834" lon="12.692207"/>
      <trkpt lat="56.076804" lon="12.692374"/>
      <trkpt lat="56.076785" lon="12.692561"/>
      <trkpt lat="56.076655" lon="12.692548"/>
      <trkpt lat="56.075458" lon="12.692429"/>
      <trkpt lat="56.074895" lon="12.692373"/>
      <trkpt lat="56.074371" lon="12.692316"/>
      <trkpt lat="56.074025" lon="12.692286"/>
      <trkpt lat="56.073780" lon="12.692299"/>
      <trkpt lat="56.073554" lon="12.692374"/>
      <trkpt lat="56.073106" lon="12.692611"/>
      <trkpt lat="56.072672" lon="12.692853"/>
      <trkpt lat="56.072588" lon="12.692892"/>
      <trkpt lat="56.071626" lon="12.693348"/>
      <trkpt lat="56.071540" lon="12.693389"/>
      <trkpt lat="56.071523" lon="12.693387"/>
      <trkpt lat="56.071506" lon="12.693379"/>
      <trkpt lat="56.071476" lon="12.693355"/>
      <trkpt lat="56.071434" lon="12.693312"/>
      <trkpt lat="56.071421" lon="12.693301"/>
      <trkpt lat="56.071407" lon="12.693293"/>
      <trkpt lat="56.071393" lon="12.693289"/>
      <trkpt lat="56.071377" lon="12.693278"/>
      <trkpt lat="56.071364" lon="12.693268"/>
      <trkpt lat="56.071354" lon="12.693255"/>
      <trkpt lat="56.071345" lon="12.693238"/>
      <trkpt lat="56.071333" lon="12.693199"/>
      <trkpt lat="56.071252" lon="12.692754"/>
      <trkpt lat="56.071241" lon="12.692696"/>
      <trkpt lat="56.071272" lon="12.692678"/>
      <trkpt lat="56.071241" lon="12.692696"/>
      <trkpt lat="56.071151" lon="12.692198"/>
      <trkpt lat="56.070846" lon="12.690570"/>
      <trkpt lat="56.070745" lon="12.690059"/>
      <trkpt lat="56.070727" lon="12.689963"/>
      <trkpt lat="56.070463" lon="12.688572"/>
      <trkpt lat="56.070038" lon="12.686234"/>
      <trkpt lat="56.069900" lon="12.685476"/>
      <trkpt lat="56.069631" lon="12.684089"/>
      <trkpt lat="56.069583" lon="12.683841"/>
      <trkpt lat="56.069356" lon="12.682720"/>
      <trkpt lat="56.069139" lon="12.681528"/>
      <trkpt lat="56.069114" lon="12.681409"/>
      <trkpt lat="56.069223" lon="12.681293"/>
      <trkpt lat="56.069276" lon="12.681216"/>
      <trkpt lat="56.069383" lon="12.681023"/>
      <trkpt lat="56.069562" lon="12.680684"/>
      <trkpt lat="56.069672" lon="12.680432"/>
      <trkpt lat="56.069733" lon="12.680223"/>
      <trkpt lat="56.069795" lon="12.679943"/>
      <trkpt lat="56.069854" lon="12.679725"/>
      <trkpt lat="56.069938" lon="12.679419"/>
      <trkpt lat="56.069958" lon="12.679376"/>
      <trkpt lat="56.070029" lon="12.679222"/>
      <trkpt lat="56.070134" lon="12.679067"/>
      <trkpt lat="56.070228" lon="12.678968"/>
      <trkpt lat="56.070318" lon="12.678893"/>
      <trkpt lat="56.070483" lon="12.678790"/>
      <trkpt lat="56.070580" lon="12.678723"/>
      <trkpt lat="56.070634" lon="12.678676"/>
      <trkpt lat="56.070680" lon="12.678489"/>
      <trkpt lat="56.070686" lon="12.678376"/>
      <trkpt lat="56.070662" lon="12.677761"/>
      <trkpt lat="56.070653" lon="12.677573"/>
      <trkpt lat="56.070606" lon="12.676660"/>
      <trkpt lat="56.070602" lon="12.676579"/>
      <trkpt lat="56.070594" lon="12.676413"/>
      <trkpt lat="56.070594" lon="12.676335"/>
      <trkpt lat="56.070602" lon="12.676254"/>
      <trkpt lat="56.070626" lon="12.676172"/>
      <trkpt lat="56.070659" lon="12.676094"/>
      <trkpt lat="56.070989" lon="12.675479"/>
      <trkpt lat="56.071372" lon="12.674988"/>
      <trkpt lat="56.071514" lon="12.674781"/>
      <trkpt lat="56.071658" lon="12.674569"/>
      <trkpt lat="56.071779" lon="12.674391"/>
      <trkpt lat="56.071925" lon="12.674154"/>
      <trkpt lat="56.072050" lon="12.673991"/>
      <trkpt lat="56.072173" lon="12.673890"/>
      <trkpt lat="56.072641" lon="12.673723"/>
      <trkpt lat="56.072875" lon="12.673622"/>
      <trkpt lat="56.073046" lon="12.673499"/>
      <trkpt lat="56.073374" lon="12.673243"/>
      <trkpt lat="56.073480" lon="12.673154"/>
      <trkpt lat="56.073541" lon="12.673081"/>
      <trkpt lat="56.073582" lon="12.673020"/>
      <trkpt lat="56.073614" lon="12.672950"/>
      <trkpt lat="56.073641" lon="12.672837"/>
      <trkpt lat="56.073657" lon="12.672703"/>
      <trkpt lat="56.073663" lon="12.672595"/>
      <trkpt lat="56.073656" lon="12.672463"/>
      <trkpt lat="56.073437" lon="12.671319"/>
      <trkpt lat="56.073390" lon="12.671044"/>
      <trkpt lat="56.073387" lon="12.670962"/>
      <trkpt lat="56.073383" lon="12.670776"/>
      <trkpt lat="56.073385" lon="12.670776"/>
      <trkpt lat="56.073383" lon="12.670776"/>
      <trkpt lat="56.073387" lon="12.670962"/>
      <trkpt lat="56.073390" lon="12.671044"/>
      <trkpt lat="56.073437" lon="12.671319"/>
      <trkpt lat="56.073656" lon="12.672463"/>
      <trkpt lat="56.073663" lon="12.672595"/>
      <trkpt lat="56.073657" lon="12.672703"/>
      <trkpt lat="56.073641" lon="12.672837"/>
      <trkpt lat="56.073614" lon="12.672950"/>
      <trkpt lat="56.073582" lon="12.673020"/>
      <trkpt lat="56.073541" lon="12.673081"/>
      <trkpt lat="56.073480" lon="12.673154"/>
      <trkpt lat="56.073374" lon="12.673243"/>
      <trkpt lat="56.073046" lon="12.673499"/>
      <trkpt lat="56.072875" lon="12.673622"/>
      <trkpt lat="56.072641" lon="12.673723"/>
      <trkpt lat="56.072173" lon="12.673890"/>
      <trkpt lat="56.072050" lon="12.673991"/>
      <trkpt lat="56.071925" lon="12.674154"/>
      <trkpt lat="56.071779" lon="12.674391"/>
      <trkpt lat="56.071658" lon="12.674569"/>
      <trkpt lat="56.071514" lon="12.674781"/>
      <trkpt lat="56.071372" lon="12.674988"/>
      <trkpt lat="56.070989" lon="12.675479"/>
      <trkpt lat="56.070659" lon="12.676094"/>
      <trkpt lat="56.070626" lon="12.676172"/>
      <trkpt lat="56.070602" lon="12.676254"/>
      <trkpt lat="56.070594" lon="12.676335"/>
      <trkpt lat="56.070594" lon="12.676413"/>
      <trkpt lat="56.070602" lon="12.676579"/>
      <trkpt lat="56.070606" lon="12.676660"/>
      <trkpt lat="56.070653" lon="12.677573"/>
      <trkpt lat="56.070662" lon="12.677761"/>
      <trkpt lat="56.070686" lon="12.678376"/>
      <trkpt lat="56.070680" lon="12.678489"/>
      <trkpt lat="56.070634" lon="12.678676"/>
      <trkpt lat="56.070580" lon="12.678723"/>
      <trkpt lat="56.070483" lon="12.678790"/>
      <trkpt lat="56.070318" lon="12.678893"/>
      <trkpt lat="56.070228" lon="12.678968"/>
      <trkpt lat="56.070134" lon="12.679067"/>
      <trkpt lat="56.070029" lon="12.679222"/>
      <trkpt lat="56.069958" lon="12.679376"/>
      <trkpt lat="56.069938" lon="12.679419"/>
      <trkpt lat="56.069854" lon="12.679725"/>
      <trkpt lat="56.069795" lon="12.679943"/>
      <trkpt lat="56.069733" lon="12.680223"/>
      <trkpt lat="56.069672" lon="12.680432"/>
      <trkpt lat="56.069562" lon="12.680684"/>
      <trkpt lat="56.069383" lon="12.681023"/>
      <trkpt lat="56.069276" lon="12.681216"/>
      <trkpt lat="56.069223" lon="12.681293"/>
      <trkpt lat="56.069114" lon="12.681409"/>
      <trkpt lat="56.068882" lon="12.681650"/>
      <trkpt lat="56.068754" lon="12.681706"/>
      <trkpt lat="56.068635" lon="12.681438"/>
      <trkpt lat="56.068467" lon="12.681058"/>
      <trkpt lat="56.068330" lon="12.680835"/>
      <trkpt lat="56.068180" lon="12.680629"/>
      <trkpt lat="56.068126" lon="12.680584"/>
      <trkpt lat="56.068040" lon="12.680557"/>
      <trkpt lat="56.067588" lon="12.680598"/>
      <trkpt lat="56.067252" lon="12.680670"/>
      <trkpt lat="56.067017" lon="12.680738"/>
      <trkpt lat="56.066709" lon="12.680840"/>
      <trkpt lat="56.066491" lon="12.680997"/>
      <trkpt lat="56.066383" lon="12.681090"/>
      <trkpt lat="56.066264" lon="12.681218"/>
      <trkpt lat="56.066110" lon="12.681428"/>
      <trkpt lat="56.066024" lon="12.681558"/>
      <trkpt lat="56.065717" lon="12.682065"/>
      <trkpt lat="56.065614" lon="12.682154"/>
      <trkpt lat="56.065538" lon="12.682188"/>
      <trkpt lat="56.065463" lon="12.682208"/>
      <trkpt lat="56.065359" lon="12.682181"/>
      <trkpt lat="56.065264" lon="12.682152"/>
      <trkpt lat="56.065189" lon="12.682079"/>
      <trkpt lat="56.065124" lon="12.681972"/>
      <trkpt lat="56.065052" lon="12.681816"/>
      <trkpt lat="56.064965" lon="12.681582"/>
      <trkpt lat="56.064897" lon="12.681347"/>
      <trkpt lat="56.064858" lon="12.681177"/>
      <trkpt lat="56.064831" lon="12.681055"/>
      <trkpt lat="56.064821" lon="12.680951"/>
      <trkpt lat="56.064803" lon="12.680445"/>
      <trkpt lat="56.064785" lon="12.680273"/>
      <trkpt lat="56.064766" lon="12.680152"/>
      <trkpt lat="56.064732" lon="12.680010"/>
      <trkpt lat="56.064681" lon="12.679835"/>
      <trkpt lat="56.064596" lon="12.679565"/>
      <trkpt lat="56.064544" lon="12.679397"/>
      <trkpt lat="56.064489" lon="12.679228"/>
      <trkpt lat="56.064471" lon="12.679170"/>
      <trkpt lat="56.064406" lon="12.678980"/>
      <trkpt lat="56.064356" lon="12.678830"/>
      <trkpt lat="56.064339" lon="12.678765"/>
      <trkpt lat="56.064309" lon="12.678657"/>
      <trkpt lat="56.064263" lon="12.678681"/>
      <trkpt lat="56.064212" lon="12.678699"/>
      <trkpt lat="56.064146" lon="12.678709"/>
      <trkpt lat="56.064084" lon="12.678713"/>
      <trkpt lat="56.063932" lon="12.678698"/>
      <trkpt lat="56.063841" lon="12.678682"/>
      <trkpt lat="56.063816" lon="12.678674"/>
      <trkpt lat="56.063774" lon="12.678660"/>
      <trkpt lat="56.063723" lon="12.678658"/>
      <trkpt lat="56.063617" lon="12.678694"/>
      <trkpt lat="56.063537" lon="12.678746"/>
      <trkpt lat="56.063512" lon="12.678764"/>
      <trkpt lat="56.063512" lon="12.678764"/>
      <trkpt lat="56.063512" lon="12.678764"/>
      <trkpt lat="56.063445" lon="12.678469"/>
      <trkpt lat="56.063512" lon="12.678764"/>
      <trkpt lat="56.063537" lon="12.678746"/>
      <trkpt lat="56.063617" lon="12.678694"/>
      <trkpt lat="56.063723" lon="12.678658"/>
      <trkpt lat="56.063774" lon="12.678660"/>
      <trkpt lat="56.063816" lon="12.678674"/>
      <trkpt lat="56.063841" lon="12.678682"/>
      <trkpt lat="56.063932" lon="12.678698"/>
      <trkpt lat="56.064084" lon="12.678713"/>
      <trkpt lat="56.064146" lon="12.678709"/>
      <trkpt lat="56.064212" lon="12.678699"/>
      <trkpt lat="56.064263" lon="12.678681"/>
      <trkpt lat="56.064309" lon="12.678657"/>
      <trkpt lat="56.064438" lon="12.678551"/>
      <trkpt lat="56.064504" lon="12.678497"/>
      <trkpt lat="56.064572" lon="12.678435"/>
      <trkpt lat="56.064719" lon="12.678287"/>
      <trkpt lat="56.064809" lon="12.678196"/>
      <trkpt lat="56.064953" lon="12.678055"/>
      <trkpt lat="56.065037" lon="12.677973"/>
      <trkpt lat="56.065283" lon="12.677731"/>
      <trkpt lat="56.065651" lon="12.677373"/>
      <trkpt lat="56.065988" lon="12.677034"/>
      <trkpt lat="56.066232" lon="12.676772"/>
      <trkpt lat="56.066614" lon="12.676297"/>
      <trkpt lat="56.067015" lon="12.675784"/>
      <trkpt lat="56.067450" lon="12.675277"/>
      <trkpt lat="56.067690" lon="12.675006"/>
      <trkpt lat="56.067775" lon="12.674910"/>
      <trkpt lat="56.068042" lon="12.674606"/>
      <trkpt lat="56.068544" lon="12.674027"/>
      <trkpt lat="56.068831" lon="12.673691"/>
      <trkpt lat="56.068980" lon="12.673507"/>
      <trkpt lat="56.069416" lon="12.672945"/>
      <trkpt lat="56.069511" lon="12.672823"/>
      <trkpt lat="56.069871" lon="12.672347"/>
      <trkpt lat="56.070686" lon="12.671241"/>
      <trkpt lat="56.071271" lon="12.670447"/>
      <trkpt lat="56.071853" lon="12.669660"/>
      <trkpt lat="56.072275" lon="12.669100"/>
      <trkpt lat="56.072510" lon="12.668804"/>
      <trkpt lat="56.072550" lon="12.668756"/>
      <trkpt lat="56.072683" lon="12.668608"/>
      <trkpt lat="56.072834" lon="12.668434"/>
      <trkpt lat="56.073040" lon="12.668180"/>
      <trkpt lat="56.073263" lon="12.667919"/>
      <trkpt lat="56.073713" lon="12.667434"/>
      <trkpt lat="56.074039" lon="12.667110"/>
      <trkpt lat="56.074114" lon="12.667060"/>
      <trkpt lat="56.074310" lon="12.666928"/>
      <trkpt lat="56.074644" lon="12.666790"/>
      <trkpt lat="56.074915" lon="12.666704"/>
      <trkpt lat="56.075294" lon="12.666569"/>
      <trkpt lat="56.075688" lon="12.666356"/>
      <trkpt lat="56.076170" lon="12.666035"/>
      <trkpt lat="56.076203" lon="12.666014"/>
      <trkpt lat="56.077679" lon="12.665116"/>
      <trkpt lat="56.079267" lon="12.664156"/>
      <trkpt lat="56.079499" lon="12.664047"/>
      <trkpt lat="56.079786" lon="12.663903"/>
      <trkpt lat="56.079856" lon="12.663872"/>
      <trkpt lat="56.080038" lon="12.663792"/>
      <trkpt lat="56.080175" lon="12.663719"/>
      <trkpt lat="56.080237" lon="12.663685"/>
      <trkpt lat="56.080293" lon="12.663643"/>
      <trkpt lat="56.080369" lon="12.663578"/>
      <trkpt lat="56.080595" lon="12.663367"/>
      <trkpt lat="56.080768" lon="12.663236"/>
      <trkpt lat="56.080898" lon="12.663143"/>
      <trkpt lat="56.081005" lon="12.663091"/>
      <trkpt lat="56.081150" lon="12.663051"/>
      <trkpt lat="56.081356" lon="12.663034"/>
      <trkpt lat="56.081766" lon="12.663024"/>
      <trkpt lat="56.082283" lon="12.663076"/>
      <trkpt lat="56.082408" lon="12.663099"/>
      <trkpt lat="56.082505" lon="12.663137"/>
      <trkpt lat="56.082591" lon="12.663175"/>
      <trkpt lat="56.082688" lon="12.663221"/>
      <trkpt lat="56.082683" lon="12.663108"/>
      <trkpt lat="56.082648" lon="12.662964"/>
      <trkpt lat="56.082632" lon="12.662918"/>
      <trkpt lat="56.082616" lon="12.662936"/>
      <trkpt lat="56.082632" lon="12.662918"/>
      <trkpt lat="56.082648" lon="12.662964"/>
      <trkpt lat="56.082683" lon="12.663108"/>
      <trkpt lat="56.082688" lon="12.663221"/>
      <trkpt lat="56.082787" lon="12.663268"/>
      <trkpt lat="56.083044" lon="12.663390"/>
      <trkpt lat="56.083719" lon="12.663716"/>
      <trkpt lat="56.084058" lon="12.663871"/>
      <trkpt lat="56.084172" lon="12.663896"/>
      <trkpt lat="56.084276" lon="12.663897"/>
      <trkpt lat="56.084348" lon="12.663889"/>
      <trkpt lat="56.084513" lon="12.663829"/>
      <trkpt lat="56.084600" lon="12.663766"/>
      <trkpt lat="56.084983" lon="12.663370"/>
      <trkpt lat="56.085157" lon="12.663162"/>
      <trkpt lat="56.085390" lon="12.662880"/>
      <trkpt lat="56.085654" lon="12.662552"/>
      <trkpt lat="56.085862" lon="12.662287"/>
      <trkpt lat="56.085917" lon="12.662219"/>
      <trkpt lat="56.086082" lon="12.662014"/>
      <trkpt lat="56.086277" lon="12.661814"/>
      <trkpt lat="56.086429" lon="12.661694"/>
      <trkpt lat="56.086529" lon="12.661626"/>
      <trkpt lat="56.086575" lon="12.661596"/>
      <trkpt lat="56.086631" lon="12.661576"/>
      <trkpt lat="56.086738" lon="12.661560"/>
      <trkpt lat="56.086847" lon="12.661555"/>
      <trkpt lat="56.086925" lon="12.661562"/>
      <trkpt lat="56.087035" lon="12.661589"/>
      <trkpt lat="56.087140" lon="12.661629"/>
      <trkpt lat="56.087289" lon="12.661716"/>
      <trkpt lat="56.087424" lon="12.661850"/>
      <trkpt lat="56.087522" lon="12.661988"/>
      <trkpt lat="56.087577" lon="12.662060"/>
      <trkpt lat="56.087603" lon="12.662094"/>
      <trkpt lat="56.087707" lon="12.662246"/>
      <trkpt lat="56.087820" lon="12.662389"/>
      <trkpt lat="56.087937" lon="12.662514"/>
      <trkpt lat="56.088087" lon="12.662625"/>
      <trkpt lat="56.088194" lon="12.662680"/>
      <trkpt lat="56.088273" lon="12.662698"/>
      <trkpt lat="56.088340" lon="12.662703"/>
      <trkpt lat="56.088391" lon="12.662702"/>
      <trkpt lat="56.088448" lon="12.662692"/>
      <trkpt lat="56.088500" lon="12.662684"/>
      <trkpt lat="56.088542" lon="12.663038"/>
      <trkpt lat="56.088584" lon="12.663321"/>
      <trkpt lat="56.088625" lon="12.663544"/>
      <trkpt lat="56.088674" lon="12.663730"/>
      <trkpt lat="56.088732" lon="12.663938"/>
      <trkpt lat="56.088942" lon="12.664541"/>
      <trkpt lat="56.089497" lon="12.666267"/>
      <trkpt lat="56.089538" lon="12.666432"/>
      <trkpt lat="56.089444" lon="12.666492"/>
      <trkpt lat="56.089346" lon="12.666196"/>
      <trkpt lat="56.089279" lon="12.666084"/>
      <trkpt lat="56.089207" lon="12.666059"/>
      <trkpt lat="56.089161" lon="12.666069"/>
      <trkpt lat="56.089150" lon="12.665898"/>
      <trkpt lat="56.089161" lon="12.666069"/>
      <trkpt lat="56.089207" lon="12.666059"/>
      <trkpt lat="56.089279" lon="12.666084"/>
      <trkpt lat="56.089346" lon="12.666196"/>
      <trkpt lat="56.089444" lon="12.666492"/>
      <trkpt lat="56.089538" lon="12.666432"/>
      <trkpt lat="56.089560" lon="12.666518"/>
      <trkpt lat="56.089618" lon="12.666720"/>
      <trkpt lat="56.089635" lon="12.666811"/>
      <trkpt lat="56.089629" lon="12.666863"/>
      <trkpt lat="56.089632" lon="12.666916"/>
      <trkpt lat="56.089642" lon="12.666966"/>
      <trkpt lat="56.089660" lon="12.667009"/>
      <trkpt lat="56.089683" lon="12.667042"/>
      <trkpt lat="56.089710" lon="12.667063"/>
      <trkpt lat="56.089737" lon="12.667070"/>
      <trkpt lat="56.089764" lon="12.667065"/>
      <trkpt lat="56.089790" lon="12.667048"/>
      <trkpt lat="56.089812" lon="12.667021"/>
      <trkpt lat="56.089830" lon="12.666984"/>
      <trkpt lat="56.089841" lon="12.666950"/>
      <trkpt lat="56.089847" lon="12.666913"/>
      <trkpt lat="56.089884" lon="12.666830"/>
      <trkpt lat="56.089921" lon="12.666744"/>
      <trkpt lat="56.089961" lon="12.666667"/>
      <trkpt lat="56.090267" lon="12.666395"/>
      <trkpt lat="56.090449" lon="12.666253"/>
      <trkpt lat="56.090579" lon="12.666201"/>
      <trkpt lat="56.090707" lon="12.666159"/>
      <trkpt lat="56.090764" lon="12.666157"/>
      <trkpt lat="56.090824" lon="12.666162"/>
      <trkpt lat="56.091029" lon="12.666211"/>
      <trkpt lat="56.091296" lon="12.666290"/>
      <trkpt lat="56.091522" lon="12.666319"/>
      <trkpt lat="56.091725" lon="12.666329"/>
      <trkpt lat="56.091899" lon="12.666317"/>
      <trkpt lat="56.092045" lon="12.666284"/>
      <trkpt lat="56.092214" lon="12.666231"/>
      <trkpt lat="56.092378" lon="12.666155"/>
      <trkpt lat="56.092549" lon="12.666054"/>
      <trkpt lat="56.092757" lon="12.665890"/>
      <trkpt lat="56.092916" lon="12.665767"/>
      <trkpt lat="56.093052" lon="12.665666"/>
      <trkpt lat="56.093184" lon="12.665595"/>
      <trkpt lat="56.093296" lon="12.665532"/>
      <trkpt lat="56.093441" lon="12.665473"/>
      <trkpt lat="56.093606" lon="12.665433"/>
      <trkpt lat="56.093787" lon="12.665401"/>
      <trkpt lat="56.093937" lon="12.665389"/>
      <trkpt lat="56.094227" lon="12.665355"/>
      <trkpt lat="56.094348" lon="12.665326"/>
      <trkpt lat="56.094516" lon="12.665278"/>
      <trkpt lat="56.094660" lon="12.665225"/>
      <trkpt lat="56.094828" lon="12.665132"/>
      <trkpt lat="56.095010" lon="12.664998"/>
      <trkpt lat="56.095164" lon="12.664858"/>
      <trkpt lat="56.095402" lon="12.664619"/>
      <trkpt lat="56.095640" lon="12.664369"/>
      <trkpt lat="56.095759" lon="12.664277"/>
      <trkpt lat="56.095854" lon="12.664212"/>
      <trkpt lat="56.095844" lon="12.664109"/>
      <trkpt lat="56.095772" lon="12.663352"/>
      <trkpt lat="56.095741" lon="12.663028"/>
      <trkpt lat="56.095736" lon="12.662968"/>
      <trkpt lat="56.095697" lon="12.662534"/>
      <trkpt lat="56.095595" lon="12.661547"/>
      <trkpt lat="56.095505" lon="12.660697"/>
      <trkpt lat="56.095370" lon="12.659393"/>
      <trkpt lat="56.095350" lon="12.659201"/>
      <trkpt lat="56.095366" lon="12.659196"/>
    </trkseg>
  </trk>
</gpx>
