<?xml version="1.0" encoding="UTF-8"?>
<gpx version="1.1" creator="HBGM 26 mattor"
 xmlns="http://www.topografix.com/GPX/1/1">
  <metadata>
    <name>HBGM 26 Mitten — Ellinor &amp; Linn</name>
    <desc>Kortaste körrutten mellan tidtagningspunkterna. Igång-tid står på varje stopp.</desc>
  </metadata>
  <wpt lat="56.071786" lon="12.669549">
    <name>1/7 40 km hel</name>
    <cmt>SÄTT UPP: Tidtagningsmatta 40 km marathon | Igång 10:00</cmt>
    <desc>SÄTT UPP: Tidtagningsmatta 40 km marathon | Igång 10:00</desc>
    <sym>Flag</sym>
    <type>Tidtagningspunkt</type>
  </wpt>
  <wpt lat="56.063095" lon="12.691518">
    <name>2/7 Vxl 1 halv</name>
    <cmt>SÄTT UPP: Växlingsmatta stafett 21 km, växling 1 | Igång 07:00 | Mellan träden, kolla bilden</cmt>
    <desc>SÄTT UPP: Växlingsmatta stafett 21 km, växling 1 | Igång 07:00 | Mellan träden, kolla bilden</desc>
    <sym>Flag</sym>
    <type>Tidtagningspunkt</type>
  </wpt>
  <wpt lat="56.064162" lon="12.693262">
    <name>3/7 5 km halv</name>
    <cmt>SÄTT UPP: Tidtagningsmatta 5 km halvmaraton | Igång 06:30 | På cykelbanan</cmt>
    <desc>SÄTT UPP: Tidtagningsmatta 5 km halvmaraton | Igång 06:30 | På cykelbanan</desc>
    <sym>Flag</sym>
    <type>Tidtagningspunkt</type>
  </wpt>
  <wpt lat="56.057608" lon="12.693184">
    <name>4/7 25 km hel</name>
    <cmt>SÄTT UPP: Tidtagningsmatta 25 km marathon | Igång 08:00 | På gatan</cmt>
    <desc>SÄTT UPP: Tidtagningsmatta 25 km marathon | Igång 08:00 | På gatan</desc>
    <sym>Flag</sym>
    <type>Tidtagningspunkt</type>
  </wpt>
  <wpt lat="56.056139" lon="12.709278">
    <name>5/7 Vxl 2 hel</name>
    <cmt>SÄTT UPP: Växlingsmatta stafett 42 km, växling 2 | Igång 09:30</cmt>
    <desc>SÄTT UPP: Växlingsmatta stafett 42 km, växling 2 | Igång 09:30</desc>
    <sym>Flag</sym>
    <type>Tidtagningspunkt</type>
  </wpt>
  <wpt lat="56.060414" lon="12.710717">
    <name>6/7 21,1 km hel</name>
    <cmt>SÄTT UPP: Tidtagningsmatta 21,1 km marathon | Igång 09:00 | På gatan 4 meter brett</cmt>
    <desc>SÄTT UPP: Tidtagningsmatta 21,1 km marathon | Igång 09:00 | På gatan 4 meter brett</desc>
    <sym>Flag</sym>
    <type>Tidtagningspunkt</type>
  </wpt>
  <wpt lat="56.054509" lon="12.715224">
    <name>7/7 20 km hel</name>
    <cmt>SÄTT UPP: Tidtagningsmatta 20 km marathon | Igång 08:30 | Inne på Fredriksdal. Kör in via Oskar trapps väg. Kod: 2109</cmt>
    <desc>SÄTT UPP: Tidtagningsmatta 20 km marathon | Igång 08:30 | Inne på Fredriksdal. Kör in via Oskar trapps väg. Kod: 2109</desc>
    <sym>Flag</sym>
    <type>Tidtagningspunkt</type>
  </wpt>
  <rte>
    <name>HBGM 26 Mitten — Ellinor &amp; Linn</name>
    <rtept lat="56.071786" lon="12.669549">
      <name>1/7 40 km hel</name>
    </rtept>
    <rtept lat="56.063095" lon="12.691518">
      <name>2/7 Vxl 1 halv</name>
    </rtept>
    <rtept lat="56.064162" lon="12.693262">
      <name>3/7 5 km halv</name>
    </rtept>
    <rtept lat="56.057608" lon="12.693184">
      <name>4/7 25 km hel</name>
    </rtept>
    <rtept lat="56.056139" lon="12.709278">
      <name>5/7 Vxl 2 hel</name>
    </rtept>
    <rtept lat="56.060414" lon="12.710717">
      <name>6/7 21,1 km hel</name>
    </rtept>
    <rtept lat="56.054509" lon="12.715224">
      <name>7/7 20 km hel</name>
    </rtept>
  </rte>
  <trk>
    <name>HBGM 26 Mitten — Ellinor &amp; Linn körväg</name>
    <trkseg>
      <trkpt lat="56.071786" lon="12.669549"/>
      <trkpt lat="56.071840" lon="12.669677"/>
      <trkpt lat="56.071271" lon="12.670447"/>
      <trkpt lat="56.070686" lon="12.671241"/>
      <trkpt lat="56.069871" lon="12.672347"/>
      <trkpt lat="56.069511" lon="12.672823"/>
      <trkpt lat="56.069416" lon="12.672945"/>
      <trkpt lat="56.068980" lon="12.673507"/>
      <trkpt lat="56.068831" lon="12.673691"/>
      <trkpt lat="56.068544" lon="12.674027"/>
      <trkpt lat="56.068042" lon="12.674606"/>
      <trkpt lat="56.067775" lon="12.674910"/>
      <trkpt lat="56.067690" lon="12.675006"/>
      <trkpt lat="56.067450" lon="12.675277"/>
      <trkpt lat="56.067015" lon="12.675784"/>
      <trkpt lat="56.066614" lon="12.676297"/>
      <trkpt lat="56.066232" lon="12.676772"/>
      <trkpt lat="56.065988" lon="12.677034"/>
      <trkpt lat="56.065651" lon="12.677373"/>
      <trkpt lat="56.065283" lon="12.677731"/>
      <trkpt lat="56.065037" lon="12.677973"/>
      <trkpt lat="56.064953" lon="12.678055"/>
      <trkpt lat="56.064809" lon="12.678196"/>
      <trkpt lat="56.064719" lon="12.678287"/>
      <trkpt lat="56.064572" lon="12.678435"/>
      <trkpt lat="56.064504" lon="12.678497"/>
      <trkpt lat="56.064438" lon="12.678551"/>
      <trkpt lat="56.064309" lon="12.678657"/>
      <trkpt lat="56.064263" lon="12.678681"/>
      <trkpt lat="56.064212" lon="12.678699"/>
      <trkpt lat="56.064146" lon="12.678709"/>
      <trkpt lat="56.064084" lon="12.678713"/>
      <trkpt lat="56.063932" lon="12.678698"/>
      <trkpt lat="56.063841" lon="12.678682"/>
      <trkpt lat="56.063816" lon="12.678674"/>
      <trkpt lat="56.063774" lon="12.678660"/>
      <trkpt lat="56.063723" lon="12.678658"/>
      <trkpt lat="56.063617" lon="12.678694"/>
      <trkpt lat="56.063537" lon="12.678746"/>
      <trkpt lat="56.063455" lon="12.678806"/>
      <trkpt lat="56.063288" lon="12.678915"/>
      <trkpt lat="56.062836" lon="12.679220"/>
      <trkpt lat="56.062853" lon="12.679291"/>
      <trkpt lat="56.062987" lon="12.679791"/>
      <trkpt lat="56.062994" lon="12.679819"/>
      <trkpt lat="56.063030" lon="12.679893"/>
      <trkpt lat="56.063105" lon="12.680050"/>
      <trkpt lat="56.063180" lon="12.680226"/>
      <trkpt lat="56.063276" lon="12.680445"/>
      <trkpt lat="56.063381" lon="12.680706"/>
      <trkpt lat="56.063407" lon="12.680786"/>
      <trkpt lat="56.063434" lon="12.680896"/>
      <trkpt lat="56.063457" lon="12.681011"/>
      <trkpt lat="56.063471" lon="12.681114"/>
      <trkpt lat="56.063479" lon="12.681224"/>
      <trkpt lat="56.063483" lon="12.681343"/>
      <trkpt lat="56.063483" lon="12.681497"/>
      <trkpt lat="56.063479" lon="12.681614"/>
      <trkpt lat="56.063464" lon="12.681825"/>
      <trkpt lat="56.063460" lon="12.681979"/>
      <trkpt lat="56.063408" lon="12.682900"/>
      <trkpt lat="56.063331" lon="12.683963"/>
      <trkpt lat="56.063314" lon="12.684155"/>
      <trkpt lat="56.063283" lon="12.684492"/>
      <trkpt lat="56.063233" lon="12.685171"/>
      <trkpt lat="56.063214" lon="12.685396"/>
      <trkpt lat="56.063200" lon="12.685761"/>
      <trkpt lat="56.063199" lon="12.686106"/>
      <trkpt lat="56.063194" lon="12.686973"/>
      <trkpt lat="56.063192" lon="12.687456"/>
      <trkpt lat="56.063199" lon="12.688030"/>
      <trkpt lat="56.063197" lon="12.688653"/>
      <trkpt lat="56.063198" lon="12.688686"/>
      <trkpt lat="56.063141" lon="12.689920"/>
      <trkpt lat="56.063065" lon="12.691014"/>
      <trkpt lat="56.063060" lon="12.691087"/>
      <trkpt lat="56.063033" lon="12.691505"/>
      <trkpt lat="56.063095" lon="12.691518"/>
      <trkpt lat="56.063033" lon="12.691505"/>
      <trkpt lat="56.062987" lon="12.692207"/>
      <trkpt lat="56.062974" lon="12.692545"/>
      <trkpt lat="56.062951" lon="12.693141"/>
      <trkpt lat="56.062930" lon="12.693299"/>
      <trkpt lat="56.063008" lon="12.693387"/>
      <trkpt lat="56.063244" lon="12.693546"/>
      <trkpt lat="56.063395" lon="12.693643"/>
      <trkpt lat="56.063466" lon="12.693685"/>
      <trkpt lat="56.063553" lon="12.693666"/>
      <trkpt lat="56.063623" lon="12.693692"/>
      <trkpt lat="56.063695" lon="12.693681"/>
      <trkpt lat="56.063856" lon="12.693639"/>
      <trkpt lat="56.064156" lon="12.693495"/>
      <trkpt lat="56.064199" lon="12.693475"/>
      <trkpt lat="56.064199" lon="12.693475"/>
      <trkpt lat="56.064162" lon="12.693262"/>
      <trkpt lat="56.064199" lon="12.693475"/>
      <trkpt lat="56.064199" lon="12.693475"/>
      <trkpt lat="56.064156" lon="12.693495"/>
      <trkpt lat="56.063856" lon="12.693639"/>
      <trkpt lat="56.063695" lon="12.693681"/>
      <trkpt lat="56.063623" lon="12.693692"/>
      <trkpt lat="56.063553" lon="12.693666"/>
      <trkpt lat="56.063477" lon="12.693611"/>
      <trkpt lat="56.063409" lon="12.693565"/>
      <trkpt lat="56.063148" lon="12.693393"/>
      <trkpt lat="56.063128" lon="12.693381"/>
      <trkpt lat="56.063024" lon="12.693315"/>
      <trkpt lat="56.062930" lon="12.693299"/>
      <trkpt lat="56.062654" lon="12.693099"/>
      <trkpt lat="56.062546" lon="12.692974"/>
      <trkpt lat="56.062473" lon="12.692940"/>
      <trkpt lat="56.062408" lon="12.692937"/>
      <trkpt lat="56.062336" lon="12.692976"/>
      <trkpt lat="56.062263" lon="12.693045"/>
      <trkpt lat="56.062219" lon="12.693084"/>
      <trkpt lat="56.061754" lon="12.693474"/>
      <trkpt lat="56.060873" lon="12.694218"/>
      <trkpt lat="56.060834" lon="12.694251"/>
      <trkpt lat="56.060611" lon="12.694416"/>
      <trkpt lat="56.060449" lon="12.694535"/>
      <trkpt lat="56.060280" lon="12.694676"/>
      <trkpt lat="56.060214" lon="12.694751"/>
      <trkpt lat="56.060151" lon="12.694837"/>
      <trkpt lat="56.059971" lon="12.694651"/>
      <trkpt lat="56.059461" lon="12.694124"/>
      <trkpt lat="56.058971" lon="12.693580"/>
      <trkpt lat="56.058795" lon="12.693410"/>
      <trkpt lat="56.058214" lon="12.693031"/>
      <trkpt lat="56.057704" lon="12.692696"/>
      <trkpt lat="56.057652" lon="12.692917"/>
      <trkpt lat="56.057591" lon="12.693171"/>
      <trkpt lat="56.057608" lon="12.693184"/>
      <trkpt lat="56.057591" lon="12.693171"/>
      <trkpt lat="56.057493" lon="12.693583"/>
      <trkpt lat="56.057437" lon="12.693818"/>
      <trkpt lat="56.057089" lon="12.695173"/>
      <trkpt lat="56.057041" lon="12.695340"/>
      <trkpt lat="56.056805" lon="12.696130"/>
      <trkpt lat="56.056542" lon="12.697027"/>
      <trkpt lat="56.056510" lon="12.697135"/>
      <trkpt lat="56.056557" lon="12.697171"/>
      <trkpt lat="56.057188" lon="12.697916"/>
      <trkpt lat="56.057629" lon="12.698428"/>
      <trkpt lat="56.057693" lon="12.698500"/>
      <trkpt lat="56.057689" lon="12.698521"/>
      <trkpt lat="56.057633" lon="12.698619"/>
      <trkpt lat="56.057101" lon="12.699543"/>
      <trkpt lat="56.057047" lon="12.699638"/>
      <trkpt lat="56.056940" lon="12.699826"/>
      <trkpt lat="56.056493" lon="12.700592"/>
      <trkpt lat="56.056472" lon="12.700628"/>
      <trkpt lat="56.056342" lon="12.700850"/>
      <trkpt lat="56.056375" lon="12.700918"/>
      <trkpt lat="56.056411" lon="12.700990"/>
      <trkpt lat="56.056475" lon="12.701219"/>
      <trkpt lat="56.056835" lon="12.701875"/>
      <trkpt lat="56.057087" lon="12.702260"/>
      <trkpt lat="56.058177" lon="12.703687"/>
      <trkpt lat="56.058247" lon="12.703779"/>
      <trkpt lat="56.058334" lon="12.703905"/>
      <trkpt lat="56.058423" lon="12.704020"/>
      <trkpt lat="56.058705" lon="12.704392"/>
      <trkpt lat="56.058767" lon="12.704473"/>
      <trkpt lat="56.059248" lon="12.705109"/>
      <trkpt lat="56.059646" lon="12.705667"/>
      <trkpt lat="56.059607" lon="12.705799"/>
      <trkpt lat="56.059568" lon="12.705913"/>
      <trkpt lat="56.059159" lon="12.706588"/>
      <trkpt lat="56.058754" lon="12.707256"/>
      <trkpt lat="56.058722" lon="12.707209"/>
      <trkpt lat="56.058683" lon="12.707188"/>
      <trkpt lat="56.058643" lon="12.707197"/>
      <trkpt lat="56.058607" lon="12.707235"/>
      <trkpt lat="56.058584" lon="12.707294"/>
      <trkpt lat="56.058575" lon="12.707365"/>
      <trkpt lat="56.058583" lon="12.707435"/>
      <trkpt lat="56.058606" lon="12.707495"/>
      <trkpt lat="56.058568" lon="12.707546"/>
      <trkpt lat="56.058533" lon="12.707605"/>
      <trkpt lat="56.058492" lon="12.707666"/>
      <trkpt lat="56.058460" lon="12.707710"/>
      <trkpt lat="56.058420" lon="12.707753"/>
      <trkpt lat="56.058374" lon="12.707783"/>
      <trkpt lat="56.058132" lon="12.707911"/>
      <trkpt lat="56.058069" lon="12.707944"/>
      <trkpt lat="56.057941" lon="12.708012"/>
      <trkpt lat="56.057896" lon="12.708035"/>
      <trkpt lat="56.057722" lon="12.708125"/>
      <trkpt lat="56.057548" lon="12.708215"/>
      <trkpt lat="56.057375" lon="12.708305"/>
      <trkpt lat="56.057279" lon="12.708355"/>
      <trkpt lat="56.057196" lon="12.708398"/>
      <trkpt lat="56.057027" lon="12.708486"/>
      <trkpt lat="56.056951" lon="12.708525"/>
      <trkpt lat="56.056899" lon="12.708551"/>
      <trkpt lat="56.056775" lon="12.708613"/>
      <trkpt lat="56.056628" lon="12.708740"/>
      <trkpt lat="56.056582" lon="12.708891"/>
      <trkpt lat="56.056582" lon="12.708891"/>
      <trkpt lat="56.056582" lon="12.708891"/>
      <trkpt lat="56.056139" lon="12.709278"/>
      <trkpt lat="56.056582" lon="12.708891"/>
      <trkpt lat="56.056628" lon="12.708740"/>
      <trkpt lat="56.056775" lon="12.708613"/>
      <trkpt lat="56.056899" lon="12.708551"/>
      <trkpt lat="56.056951" lon="12.708525"/>
      <trkpt lat="56.057027" lon="12.708486"/>
      <trkpt lat="56.057196" lon="12.708398"/>
      <trkpt lat="56.057279" lon="12.708355"/>
      <trkpt lat="56.057375" lon="12.708305"/>
      <trkpt lat="56.057548" lon="12.708215"/>
      <trkpt lat="56.057722" lon="12.708125"/>
      <trkpt lat="56.057896" lon="12.708035"/>
      <trkpt lat="56.057941" lon="12.708012"/>
      <trkpt lat="56.058069" lon="12.707944"/>
      <trkpt lat="56.058132" lon="12.707911"/>
      <trkpt lat="56.058374" lon="12.707783"/>
      <trkpt lat="56.058420" lon="12.707753"/>
      <trkpt lat="56.058460" lon="12.707710"/>
      <trkpt lat="56.058492" lon="12.707666"/>
      <trkpt lat="56.058533" lon="12.707605"/>
      <trkpt lat="56.058568" lon="12.707546"/>
      <trkpt lat="56.058606" lon="12.707495"/>
      <trkpt lat="56.058644" lon="12.707536"/>
      <trkpt lat="56.058688" lon="12.707544"/>
      <trkpt lat="56.058730" lon="12.707516"/>
      <trkpt lat="56.058761" lon="12.707458"/>
      <trkpt lat="56.058800" lon="12.707518"/>
      <trkpt lat="56.059418" lon="12.708484"/>
      <trkpt lat="56.059465" lon="12.708557"/>
      <trkpt lat="56.059899" lon="12.709236"/>
      <trkpt lat="56.060354" lon="12.709953"/>
      <trkpt lat="56.060587" lon="12.710333"/>
      <trkpt lat="56.060534" lon="12.710457"/>
      <trkpt lat="56.060444" lon="12.710707"/>
      <trkpt lat="56.060417" lon="12.710728"/>
      <trkpt lat="56.060414" lon="12.710717"/>
      <trkpt lat="56.060417" lon="12.710728"/>
      <trkpt lat="56.059180" lon="12.711685"/>
      <trkpt lat="56.059144" lon="12.711713"/>
      <trkpt lat="56.058916" lon="12.711889"/>
      <trkpt lat="56.058455" lon="12.712228"/>
      <trkpt lat="56.057790" lon="12.712745"/>
      <trkpt lat="56.057279" lon="12.713172"/>
      <trkpt lat="56.057421" lon="12.713859"/>
      <trkpt lat="56.057409" lon="12.713965"/>
      <trkpt lat="56.057365" lon="12.714054"/>
      <trkpt lat="56.057313" lon="12.714132"/>
      <trkpt lat="56.057250" lon="12.714162"/>
      <trkpt lat="56.056873" lon="12.714432"/>
      <trkpt lat="56.056463" lon="12.714751"/>
      <trkpt lat="56.055974" lon="12.715108"/>
      <trkpt lat="56.055367" lon="12.715556"/>
      <trkpt lat="56.055099" lon="12.715768"/>
      <trkpt lat="56.054949" lon="12.715886"/>
      <trkpt lat="56.054882" lon="12.715921"/>
      <trkpt lat="56.054744" lon="12.716015"/>
      <trkpt lat="56.054744" lon="12.716015"/>
      <trkpt lat="56.054744" lon="12.716015"/>
      <trkpt lat="56.054509" lon="12.715224"/>
    </trkseg>
  </trk>
</gpx>
